store_number,store_name,address,city,zip_code,county_number
2106,Hillstreet News and Tobacco,2217 COLLEGE,CEDAR FALLS,50613,7
2113,Jamboree Foods,1119 MARKET ST. BOX 71,GOWRIE,50543,94
2130,Sycamore Convenience,617 SYCAMORE,WATERLOO,50703,7
2132,Spirits and Such,100 E ELM,WEST UNION,52175,33
2152,Dugans Supermarket,202 4TH NORTH,ROCKWELL,50469,17
2161,Huber's Store Inc.,FIRST & MAIN,FT. ATKINSON,52144,96
2178,"Double ""D"" Liquor Store",618 ROSSVILLE ROAD,WAUKON,52172,3
2190,"Central City Liquor, Inc.",1460 2ND AVE,DES MOINES,50314,77
2191,Keokuk Spirits,1013 MAIN,KEOKUK,52632,56
2200,Sac Liquor Store,619 E MAIN ST,SAC CITY,50583,81
2205,Ding's Honk And Holler,900 E WASHINGTON,CLARINDA,51632,73
2228,Rodgers Spirits and More,53 GREEN ST,WINTERSET,50273,61
2233,Forbes Liquor Locker / remi,2508 ENTERPRISE AVE,SPIRIT LAKE,51360,30
2238,Adventureland Inn,3200 Adventureland Dr,ALTOONA,50009,77
2248,Ingersoll Liquor and Beverage,3500 INGERSOLL AVE,DES MOINES,50312,77
2260,"Spirits And Ale, Inc.",509 FIRST AVE,PERRY,50220,25
2285,John's Grocery,401 EAST MARKET ST,IOWA CITY,52240,52
2290,Al's Liquors Unlimited,215 WEST MILWAUKEE,STORM LAKE,50588,11
2327,West Side Spirits,801 HULL ST,CORNING,50841,2
2353,Cresco Liquor Store,708 2ND AVE SE,CRESCO,52136,45
2367,Spencer's Grocery,101 SOUTH BURNETT,SHENANDOAH,51601,73
2413,Beecher Beverage,1691 ASBURY ROAD,DUBUQUE,52001,31
2422,Marriott Corp.,700 GRAND AVENUE,DES MOINES,50309,77
2445,Ruback's Food Center,504 SOUTH HIGHWAY,OAKLAND,51560,78
2448,Bottle Boutique,705 E. SECOND,INDIANOLA,50125,91
2459,Reinhart Foods,200 STATE PO BOX 98,GUTHRIE CENTER,50115,39
2460,"Liquor Barn, Inc.",721 CENTRAL AVENUE WEST,HAMPTON,50441,35
2465,Sid's Beverage Shop,2727 DODGE ST,DUBUQUE,52003,31
2475,"Private Cellar, Inc.",206 2ND AVE NE,WEST BEND,50597,55
2478,Prairie Meadows,ONE PRAIRIE MEADOWS DRIVE,ALTOONA,50009,77
2487,Anamosa Family Foods,402 EAST MAIN,ANAMOSA,52205,53
2498,Charley's Quik Shop,910 MAIN ST,ARLINGTON,50606,33
2500,Hy-Vee Food Store #1 / Ames,3800 W LINCOLN WAY,AMES,50010,85
2501,Hy-vee  #2 / Ames,640 LINCOLNWAY,AMES,50010,85
2502,Hy-Vee Wine and Spirits / Ankeny,410 NORTH ANKENY BLVD,ANKENY,50021,77
2503,Hy-Vee Drugstore / Ankeny,849 SOUTH ANKENY BLVD.,ANKENY,50021,77
2505,Hy-Vee Wine and Spirits / Boone,1111  8TH ST,BOONE,50036,8
2506,Hy-Vee #1044 / Burlington,3140 AGENCY,BURLINGTON,52601,29
2507,Hy-Vee Food Store #1 / Burlington,939 ANGULAR,BURLINGTON,52601,29
2508,Hy-Vee Food Store #1 / Cedar Rapids,"1843 JOHNSON AVENUE, N.W.",CEDAR RAPIDS,52405,57
2509,Hy-Vee / Drugtown #1 / Cedar Rapids,1520 6TH ST SW,CEDAR RAPIDS,52404,57
2510,Hy-Vee Drugstore #3 / Cedar Rapids,2405 MT VERNON RD SE,CEDAR RAPIDS,52403,57
2511,Hy-Vee / Drugtown #2 / Cedar Rapids,"1440 32ND STREET, N.E.",CEDAR RAPIDS,52402,57
2512,Hy-Vee Wine and Spirits / Iowa City,1720 WATERFRONT DR,IOWA CITY,52240,52
2513,Hy-Vee Food Store #2 / Iowa City,812  S 1ST AVE,IOWA CITY,52240,52
2514,Hy-Vee Drugstore / Marion,2790 7TH AVENUE,MARION,50129,57
2515,Hy-Vee Food Store #1 / Mason City,2400 4TH ST SW,MASON CITY,50401,17
2517,Hy-Vee Food Store #1 / Newton,1501 FIRST AVENUE EAST,NEWTON,50208,50
2518,Hy-Vee Wine and Spirits / Red Oak,1607 NORTH BROADWAY,RED OAK,51566,69
2521,Hy-Vee Food and Drug / Grand / WDM,1990 GRAND AVENUE,WEST DES MOINES,50265,77
2522,Hy-Vee Wine and Spirits / Spirit Lak,HWY 9 & 71,SPIRIT LAKE,51360,30
2523,Hy-Vee Food Store / Centerville,414 N 18TH ST,CENTERVILLE,52544,4
2524,Hy-Vee Food Store / Dubuque,3500 DODGE ST,DUBUQUE,52001,31
2527,Hy-Vee Food Store #5 / Des Moines,1107 SE ARMY POST RD,DES MOINES,50315,77
2528,Hy-Vee Food Store #3 / Des Moines,3221 SE 14TH ST,DES MOINES,50315,77
2529,Hy-Vee Drugstore #4 / Cedar Rapids,4825 JOHNSON AVE NW,CEDAR RAPIDS,52405,57
2532,Hy-Vee Food Store #2 / Des Moines,2540 E EUCLID,DES MOINES,50317,77
2534,Hy-Vee Drugtown / Urbandale,8601 DOUGLAS,URBANDALE,50322,77
2535,Hy-Vee Food Store #1 / WDM,1700 VALLEY WEST DR,WEST DES MOINES,50265,77
2536,HY-VEE / PLEASANT HILL,4815 MAPLE DRIVE,PLEASANT HILL,50317,77
2537,Hy-Vee Drugstore / Fort Dodge,215 S 25TH ST,FORT DODGE,50501,94
2538,Hy-Vee Food Store #3 / Waterloo,1422 FLAMMANG DR,WATERLOO,50702,7
2539,Hy-Vee Food Store / iowa Falls,HIGHWAY 65 SOUTH,IOWA FALLS,50126,42
2543,Hy-Vee Food Store #1 / Ottumwa,1025 NORTH QUINCY AVE,OTTUWMA,52501,90
2544,Hy-Vee Food Store / Marshalltown,802 SOUTH CENTER,MARSHALLTOWN,50158,64
2545,Hy-Vee Drugstore / Iowa City,310 N 1ST ST,IOWA CITY,52245,52
2548,Hy-Vee Food Store / Altoona,100 8TH STREET SW,ALTOONA,50009,77
2549,Hy-Vee Food Store / Indianola,910 N JEFFERSON,INDIANOLA,50125,91
2550,Hy-Vee Food Store / Osceola,510 WEST MCLANE,OSCEOLA,50213,20
2551,Hy-Vee Food Store / Chariton,2001 WEST COURT,CHARITON,50049,59
2552,Hy-Vee Food Store #3 / Cedar Rapids,20 WILSON AVENUE WEST,CEDAR RAPIDS,52404,57
2553,Hy-Vee Food Store / Creston,600 SHELDON,CRESTON,50801,88
2554,Hy-Vee Food Store / Davenport,3019 ROCKINGHAM ROAD,DAVENPORT,52802,82
2555,Hy-Vee Food Store / Keokuk,3111 MAIN,KEOKUK,52632,56
2556,Hy-Vee Wine and Spirits / Esthervill,2608 E. CENTRAL AVENUE,ESTHERVILLE,51334,32
2558,Hy-Vee Food Store / Mount Pleasant,1700 E WASHINGTON,MOUNT PLEASANT,52641,44
2559,Hy-Vee Food Store / Albia,301 HWY. 34 WEST,ALBIA,52531,68
2560,Hy-Vee Food Store / Marion,3600 BUSINESS HWY 151 EAST,MARION,52302,57
2561,Hy-Vee Food Store / Fleur / DSM,4605 FLEUR DRIVE,DES MOINES,50321,77
2562,Hy-Vee Food Store / Fort Dodge,115 SOUTH 29TH ST,FORT DODGE,50501,94
2564,Hy-Vee Food Store #4 / Waterloo,4000 UNIVERSITY,WATERLOO,50701,7
2565,Hy-Vee Food Store / Spencer,819 N GRAND AVE,SPENCER,51301,21
2566,Hy-Vee Food Store / Knoxville,813 N LINCOLN STE 1,KNOXVILLE,50138,63
2567,Hy-Vee Drugstore / Davenport,2200 WEST KIMBERLY,DAVENPORT,52806,82
2568,Hy-Vee Food Store #4 / Cedar Rapids,1556 FIRST AVENUE NE,CEDAR RAPIDS,52402,57
2569,Hy-Vee Food Store #2 / Cedar Rapids,279 COLLINS ROAD NE,CEDAR RAPIDS,52402,57
2571,Hy-Vee Food Store #2 / Waterloo,2181 LOGAN AVE,WATERLOO,50703,7
2572,Hy-Vee Food Store / Cedar Falls,6301 UNIVERSITY,CEDAR FALLS,50613,7
2573,Hy-Vee Food Store / Muscatine,2400 2ND AVE,MUSCATINE,52761,70
2575,Hy-Vee Food Store #1 / Waterloo,2834 Ansborough Ave,WATERLOO,50702,7
2576,Hy-Vee Wine and Spirits / Storm Lake,1250 N LAKE ST,STORM LAKE,50588,11
2578,Hy-Vee / Charles City,901 KELLY ST,CHARLES CITY,50616,34
2579,Hy-Vee Food Store / Grinnell,320 WEST STREET SOUTH,GRINNELL,50112,79
2582,Hy-Vee #2 Food Store / Mason City,551 S ILLINOIS AVE,MASON CITY,50401,17
2583,Hy-Vee Food Store / Washington,528 S HWY 1,WASHINGTON,52353,92
2584,Hy-Vee Food Store / Fort Madison,2606 AVENUE L,FORT MADISON,52627,56
2585,Hy-Vee Wine and Spirits / Algona,1516 HIGHWAY 169 NORTH,ALGONA,50511,55
2587,Hy-Vee Food Store / Johnston,5750 MERLE HAY ROAD,JOHNSTON,50131,77
2588,Hy-Vee Food and Drug #6 / Cedar Rapi,4035 MT. VERNON ROAD S.E.,CEDAR RAPIDS,52403,57
2590,Hy-Vee Food Store #5 / Cedar Rapids,3235 OAKLAND ROAD NE,CEDAR RAPIDS,52402,57
2591,Hy-Vee Wine and Spirits / Atlantic,1602 E. 7TH ST.,ATLANTIC,50022,15
2592,Hy-Vee Drugstore / Marshalltown,1712 S CENTER  ST,MARSHALLTOWN,50158,64
2593,Hy-Vee Food Store / Carroll,905 US HIGHWAY 30 WEST,CARROLL,51401,14
2594,Hy-Vee Food Store / Sioux City,4500 SERGEANT ROAD,SIOUX CITY,51106,97
2595,Hy-Vee Wine and Spirits / Denison,"1620  4TH AVE, SOUTH",DENISON,51442,24
2596,Hy-Vee / Regal Liquors and Video,2453 NORTH COURT,OTTUMWA,52501,90
2597,Hy-Vee Food Store / Cherokee,1300 N. SECOND,CHEROKEE,51012,18
2599,Hy-Vee Wine and Spirits / Coralville,1914 8TH STREET,CORALVILLE,52241,52
2600,Hy-Vee Food Store / Oskaloosa,110  SO  D  ST,OSKALOOSA,52577,62
2601,Hy-Vee Food Store / Fairfield,1300 WEST BURLINGTON AVE,FAIRFIELD,52556,51
2602,Hy-Vee Food Store / Webster City,823  2ND ST,WEBSTER CITY,50595,40
2603,Hy-Vee Wine and Spirits / Bettendorf,2890 DEVILS GLEN ROAD,BETTENDORF,52722,82
2604,Hy-Vee Wine and Spirits / Lemars,1201 12TH AVE SW,LEMARS,51031,75
2605,Hy-Vee Drugstore #5 / Cedar Rapids,2001 BLAIRS FERRY ROAD NE,CEDAR RAPIDS,52402,57
2606,Hy-Vee Wine and Spirits / Humboldt,1011  13TH ST NORTH,HUMBOLDT,50548,46
2607,Hy-Vee Wine and Spirits / Shenandoah,520 SO FREMONT,SHENANDOAH,51601,73
2609,Hy-Vee Drugstore #2 / Ames,500 MAIN ST,AMES,50010,85
2611,Hy-Vee Drugstore / Ottumwa,1140 NORTH JEFFERSON ST,OTTUMWA,52501,90
2612,Hy-Vee Store / Perry,1215  141 ST,PERRY,50220,25
2613,Hy-Vee Food Store #1 / Council Bluff,2323 W BROADWAY,COUNCIL BLUFFS,51501,78
2614,Hy-Vee #3 Food and Drugstore,1823 E KIMBERLY RD,DAVENPORT,52807,82
2616,Hy-Vee Food and Drug / Clinton,901 SOUTH 4TH ST,CLINTON,52732,23
2618,Hy-Vee Drugstore #6 / Cedar Rapids,505 BOYSON RD NE,CEDAR RAPIDS,52402,57
2619,Hy-Vee Wine and Spirits / WDM,1725  74TH ST,WEST DES MOINES,50266,77
2620,Hy-Vee / Windsor Heights,7101 UNIVERSITY AVE,WINDSOR HEIGHTS,50311,77
2621,Hy-Vee Food Store #3 / Sioux City,3301 GORDON DR,SIOUX CITY,51105,97
2622,Hy-Vee Food Store / Iowa City,1125 N DODGE ST,IOWA CITY,52240,52
2623,Hy-Vee Food Store #4 / Sioux City,2827 HAMILTON BLVD,SIOUX CITY,51104,97
2624,Hy-Vee #2 / Dubuque,2395 NW ARTERIAL RD,DUBUQUE,52002,31
2625,Hy-Vee Wine and Spirits #2,3301 W KIMBERLY RD,DAVENPORT,52804,82
2626,Hy-Vee Drugstore / University / DSM,4100 UNIVERSITY AVE,DES MOINES,50311,77
2627,Hy-Vee Wine and Spirits #1,3424 MARTIN LUTHER KING JR PKW,DES MOINES,50310,77
2628,Hy-Vee Food Store / Eldora,1616 EDGINGTON,ELDORA,50627,42
2629,Hy-Vee Food Store #2 / Council Bluff,1745 MADISON AVE,COUNCIL BLUFFS,51503,78
2630,Hy-Vee Drugstore #2 / WDM,1010  60TH ST,WEST DES MOINES,50266,77
2633,Hy-Vee #3 / BDI / Des Moines,3221 SE 14TH ST,DES MOINES,50320,77
2634,Hy-Vee Wine and Spirits / Ames,3615 LINCOLN WAY,AMES,50014,85
2635,Hy-Vee #4 / Davenport,4064 E 53RD ST,DAVENPORT,52807,82
2636,Hy-Vee Wine and Spirits / Hubbell,2310 HUBBELL AVE,DES MOINES,50317,77
2637,Hy-Vee #5 / Davenport,2351 W LOCUST,DAVENPORT,52804,82
2638,Hy-Vee Wine and Spirits / Cedar Fall,5925 UNIVERSITY AVE STE A,CEDAR FALLS,50613,7
2641,Hy-Vee Drugstore / Council Bluffs,757 W BROADWAY,COUNCIL BLUFFS,51501,78
2642,Hy-Vee Wine and Spirits / Pella,512 E OSKALOOSA,PELLA,50219,63
2643,Hy-Vee Wine and Spirits / Waterloo,2126 KIMBALL AVE,WATERLOO,50701,7
2644,Hy-Vee Fort Dodge Wine and Spirits,1511 2ND AVE NORTH,FORT DODGE,50501,94
2645,Hy-Vee Drugstore / Muscatine,510 E 6TH ST,MUSCATINE,52761,70
2647,Hy-Vee #7 / Cedar Rapids,5050 EDGEWOOD RD,CEDAR RAPIDS,52411,57
2648,Hy-Vee #4 / WDM,555 S 51ST ST,WEST DES MOINES,50265,77
2649,Hy-Vee #3 / Dubuque,400 LOCUST ST,DUBUQUE,52001,31
2650,Hy-Vee Wine and Spirits / Harlan,1808 23RD ST,HARLAN,51537,83
2651,Hy-Vee / Waverly,1311 4 STREET SW,WAVERLY,50677,9
2652,Hy-Vee DrugStore / Mason City,875  4TH ST SW,MASON CITY,50401,17
2653,Hy-Vee Wine and Spirits / Washington,1004 W MADISON ST,WASHINGTON,52353,92
2655,Hy-Vee Food Store / Clarinda,1200 S 16TH ST,CLARINDA,51632,73
2656,Hy-Vee Food Store / Corning,300  10TH ST,CORNING,51632,22
2657,Hy-Vee Food Store / Bedford,1604 BENT,BEDFORD,50833,87
2658,Hy-Vee Food Store / Mount Ayr,402 S HAYES ST,MOUNT AYR,50854,80
2659,Hy-Vee Food Store / Corydon,303 E JEFFERSON ST,CORYDON,50060,93
2660,HY-VEE FOOD STORE / SIOUX CENTER,1951 S MAIN AVE,SIOUX CENTER,51250,84
2661,Hy-Vee Food Store / Sheldon,1989 PARK ST,SHELDON,51201,71
2662,Hy-Vee Wine & Spirits / Muscatine,"522 MULBERRY, SUITE A",MUSCATINE,52761,70
2663,Hy-Vee / Urbandale,8701 DOUGLAS,URBANDALE,50322,77
2664,Hy-Vee C-Store / Charles City,1003 KELLY ST,CHARLES CITY,50616,34
2665,Hy-Vee / Waukee,1005 E HICKMAN RD,WAUKEE,50263,25
2666,Hy-Vee #2 / Ankeny,2510 SW STATE ST,ANKENY,50023,77
2667,Hy-Vee Mainstreet,2611 PIERCE ST,SIOUX CITY,51104,97
2668,Hy-Vee Food Store / Leon,1004 W 1st ST,LEON,50144,27
2669,Hy-Vee / Corydon,"103, E JACKSON ST",CORYDON,50060,93
2670,Hy-Vee Food Store / Coralville,2004 8TH  ST,CORALVILLE,52241,52
2671,Hy-Vee  /  Jefferson,"106, W WASHINGTON ST",JEFFERSON,50129,37
2672,Hy-Vee / Winterset,923 N  1ST ST,WINTERSET,50273,61
2806,Osco #881 / Clinton,1307 N SECOND,CLINTON,52732,23
2835,CVS Pharmacy #8538 / Cedar Falls,2302 WEST FIRST ST,CEDAR FALLS,50613,7
2836,CVS Pharmacy #8546 / Waterloo,205 FRANKLIN ST,WATERLOO,50703,7
2837,CVS Pharmacy #8544 / Waterloo,1825 E San Marnan,WATERLOO,50702,7
2838,CVS Pharmacy #8658 / Davenport,1655 W KIMBERLY RD,DAVENPORT,52806,82
2839,CVS Pharmacy #8659 / Davenport,1777 DIVISION ST,DAVENPORT,52804,82
2840,CVS Pharmacy #8633 / Bettendorf,2002 SPRUCE HILLS DR,BETTENDORF,52722,82
2841,CVS Pharmacy #8532 / Cedar Rapids,2711 MT VERNON RD,CEDAR RAPIDS,52403,57
2843,CVS Pharmacy #8526 / Cedar Rapids,4116 CENTER POINTE RD,CEDAR RAPIDS,52402,57
2844,CVS Pharmacy #8547 / Iowa City,2425 MUSCATINE AVE,IOWA CITY,52240,52
2845,CVS Pharmacy #4816 / Council Bluffs,545 W WASHINGTON ST,COUNCIL BLUFFS,51503,78
2846,CVS Pharmacy #8443 / Cedar Rapids,3419 16th AVE SW,CEDAR RAPIDS,52404,57
2847,CVS Pharmacy #10032 / Marion,"3499, 7th AVE",MARION,52302,57
2848,CVS Pharmacy #10114 / Ankeny,104 E FIRST ST,ANKENY,50023,77
2849,CVS Pharmacy #10162 / Des Moines,3151 SE 14TH ST,DES MOINES,50320,77
2850,CVS / Pharmacy #10161 / Des Moines,215 E EUCLID AVE,DES MOINES,50313,77
2851,CVS / Pharmacy #10282 / Fort Dodge,2029 5TH AVE SOUTH,FORT DODGE,50501,94
2852,CVS Pharmacy #10329 / Merle Hay,2303 MERLE HAY RD,DES MOINES,50310,77
2853,CVS Pharmacy #10452  /  Ames,2420 LINCOLN WAY,AMES,50014,85
2854,CVS / Pharmacy #10480 / Urbandale,14201 HICKMAN RD,URBANDALE,50323,77
2951,Dahl's / Hickman,8700 HICKMAN,CLIVE,50322,77
2953,Dahl's / E. Euclid,1320 E. EUCLID,DES MOINES,50316,77
2954,Dahl's / Ingersoll,3425 INGERSOLL,DES MOINES,50300,77
2955,Dahl's / Beaver,1819 BEAVER,DES MOINES,50310,77
2956,Dahl's / Fleur Dr,4121 FLEUR DRIVE,DES MOINES,50300,77
2958,Dahl's / E 33rd,3400 E 33 ST,DES MOINES,50317,77
2959,Dahl's / Merle Hay,4343 MERLE HAY ROAD,DES MOINES,50310,77
2960,Dahl's / Wdm,1208 PROSPECT,WEST DES MOINES,50265,77
2961,Dahl's / Ep True / Wdm,5003 E P TRUE PARKWAY,WEST DES MOINES,50265,77
2962,Dahl's / Johnston,5440 NW 86TH ST,JOHNSTON,50131,77
2963,Dahl's / Clive,15500 HICKMAN,CLIVE,50325,77
2964,Dahl's / Ankeny,1802 N ANKENY BLVD,ANKENY,50023,77
3003,Super Valu / Mark's,820 E. MAIN STREET,LAKE CITY,51449,13
3013,Keith's Foods,207 E LOCUST ST,BLOOMFIELD,52537,26
3016,Super Valu / bender's,200 SOUTH STATE ST,DENVER,50622,9
3041,Shugar's Super Valu / Colfax,28 E HOWARD,COLFAX,50054,50
3045,Britt Food Center,8 2ND ST NW,BRITT,50423,41
3054,Mcnally's Super Valu,1026 MAIN,GRINNELL,50112,79
3056,Clarion Super Valu Ii,325 CENTRAL AVE W,CLARION,50525,99
3064,Shugar's Super Valu / Adel,804 NILE KINNICK DR S,ADEL,50003,25
3065,Montezuma Super Valu,201 S FRONT ST,MONTEZUMA,50171,79
3162,Nash Finch / Wholesale Food,807 GRANDVIEW,MUSCATINE,52761,70
3172,Nash Finch / econofoods #51,20 SOUTH 4TH ST,CLEAR LAKE,50428,17
3352,Cork 'n' Bottle,900 EAST MAIN ST.,MANCHESTER,52057,28
3354,Sam's Club 8238 / Davenport,3845 ELMORE AVE.,DAVENPORT,52807,82
3385,Sam's Club 8162 / Cedar Rapids,2605 BLAIRS FERRY RD NE,CEDAR RAPIDS,52402,57
3390,Okoboji Avenue Liquor,1610 OKOBOJI AVENUE,MILFORD,51351,30
3393,The Hangout Liquors,111 W MAIN ST.,RICEVILLE,50466,66
3400,Last Stop Beverage Shop,2839 E. UNIVERSITY,DES MOINES,50317,77
3403,Econ-o-mart / Columbus Junction,113 EAST WALNUT ST.,COLUMBUS JUNCTION,52738,58
3417,Big G Food Store,PO BOX 261  310 W DILLON,MARENGO,52301,48
3420,Sam's Club 6344 / Windsor Heights,1101  73RD STREET,WINDSOR HEIGHTS,50311,77
3437,Scott's Foods,1120 SUNSET DRIVE,NORWALK,50211,91
3440,Hawkeye Pantry,501 LOCUST ST,DES MOINES,50309,77
3443,Super Saver Iv,1141 N BROADWAY,COUNCIL BLUFFS,51503,78
3447,Sam's Club 6432 / Sioux City,4201 S. YORK ST.,SIOUX CITY,51106,97
3451,Barnes Foodland,622 10TH ST,DEWITT,52742,23
3456,Quick Shop / Clear Lake,904 N 8TH ST,CLEAR LAKE,50428,17
3461,Hometown Foods / Stuart,611 S DIVISION ST,STUART,50250,1
3465,Hometown Foods / Panora,601 E MAIN,PANORA,50216,39
3477,Sam's Club 6472 / Council Bluffs,3221 MANAWA CENTRE DR,COUNCIL BLUFFS,51501,78
3480,C's Spencer Liquor,719  2ND AVE W PO BOX 401,SPENCER,51301,21
3482,Kick The Can,525 N MAPLE ST,CARROLL,51401,14
3484,Jeff's Foods,110 W CEDAR ST,MARCUS,51035,18
3488,Bender's Foods,400 S SECOND,BELLEVUE,52031,49
3492,Jubilee Foods / Rockwell City,319 COURT ST,ROCKWELL CITY,50579,13
3494,Sam's Club 6514 / Waterloo,210 EAST TOWER PARK DR,WATERLOO,50702,7
3495,Great Pastimes,228 N MAIN ST,MONTICELLO,52310,53
3514,Karen's Spirits and Wine,328  2ND AVE S,FORT DODGE,50501,94
3521,Ameristar Casino / Council Bluffs,2200 RIVER ROAD,COUNCIL BLUFFS,51501,78
3524,Sam's Club 6568 / Ames,305 AIRPORT RD,AMES,50010,85
3525,Wines and Spirits,106 W 2ND ST,WASHINGTON,52353,92
3528,Super Target T-0804 Mason City,3450  4TH ST SW,MASON CITY,50401,17
3529,A To Z Liquor and Smoke Shop,114 S SECOND,CHEROKEE,51012,18
3530,Primghar Liquor Store,175  1ST ST SE,PRIMGHAR,51245,71
3531,Osage Liquors,508 MAIN ST,OSAGE,50461,66
3534,A. V. Liquor,207 S HILLTOP AVE,ALTA VISTA,50603,19
3536,Geno's Liquor,111 S COMMERCIAL AVE,EAGLE GROVE,50533,99
3540,Super Target T-0533 / Davenport,5225 ELMORE AVE,DAVENPORT,52807,82
3542,Chuck's Sportsmans Beverage,244 W 4TH ST,ST ANSGAR,50472,66
3543,Pronto Market,101 MAIN ST,KINGSLEY,51028,75
3549,Quicker Liquor Store,1414 48TH ST,FORT MADISON,52627,56
3554,Dick's Beverage Depot,102 N MAIN,TRIPOLI,50676,9
3562,Wal-Mart 0797 / W Burlington,324 WEST AGENCY RD,WEST BURLINGTON,52655,29
3563,Wal-Mart 0559 / Muscatine,3003 NORTH HWY 61,MUSCATINE,52761,70
3565,Hartig Drug Store #10,701 MORMON TREK BLVD,IOWA CITY,52246,52
3569,Katy Did General Store,419 MERRILL ST,BUSSEY,50044,63
3573,Quik Shop Foods / Four M In,405 S MADISON,OTTUMWA,52501,90
3576,Liquor Store / Hartley,10  3RD ST NW,HARTLEY,51346,71
3582,Korthouse Liquor,102 W 1ST ST,LEON,50144,27
3583,Mac's Liquor And Videos,220 EAST JEFFERSON,CORYDON,50060,93
3584,L and M Beverage,1011 S FREDERICK M/A PO BX 572,OELWEIN,50662,33
3587,Save A Lot  #482,2122 MAIN ST,KEOKUK,52632,56
3591,Ackley Super Foods,526 MAIN ST,ACKLEY,50601,94
3592,Wal-Mart 0886 / Fort Dodge,3036 1ST AVE SOUTH,FORT DODGE,50501,42
3596,Laddy's Bar And Grill,204 MAIN ST,CHESTER,52134,45
3606,Scotty's Liquor Store,804 G AVE,GRUNDY CENTER,50638,38
3611,Logan Super Foods,403 E 6TH,LOGAN,51546,43
3612,B and C Liquor / Maquoketa,509 E PLATT,MAQUOKETA,52060,49
3614,Ida Grove Food Pride,200 OAK GROVE DR,IDA GROVE,51445,47
3615,Emmetsburg Food Pride,1307 S BROADWAY,EMMETSBURG,50536,74
3616,Laurens Food Pride,410 W MAIN ST,LAURENS,50554,76
3618,Wal-Mart 2716 / Cedar Rapids,3601 29TH AVE SW,CEDAR RAPIDS,52404,57
3621,"Jensen Liquors, Ltd.",615  2ND AVE,SHELDON,51201,71
3622,Wal-Mart 1415 / Spirit Lake,2600 HWY 71,SPIRIT LAKE,51360,30
3624,Wal-Mart 0748 / Newton,300 IOWA SPEEDWAY DR,NEWTON,50208,50
3625,Wal-Mart 0892 / Ankeny,1002 SE NATIONAL DR,ANKENY,50021,77
3626,Wal-Mart 2714 / Spencer,500  11TH ST,SPENCER,51301,21
3628,Wal-Mart 1528 / Cedar Rapids,2645 BLAIRS FERRY RD NE,CEDAR RAPIDS,52402,57
3629,Wal-Mart 1965 / Council Bluffs,3200 MANAWA DR,COUNCIL BLUFFS,51503,78
3631,Audubon Food Pride,104 MARKET ST PO BOX 206,AUDUBON,50025,5
3632,Wal-Mart 2004 / Dubuque,4200 DODGE ST,DUBUQUE,52003,31
3635,Clark's Food Mart / Ogden,302 WEST WALNUT ST,OGDEN,50212,8
3642,Fraise Foods / Sonny's Supermarket,327  5TH ST,WEST POINT,52656,56
3644,Wal-Mart 2764 / Altoona,3501  8TH ST SW,ALTOONA,50009,77
3645,Wal-Mart 1764 / Windsor Heights,1001  73RD ST,WINDSOR HEIGHTS,50311,77
3647,Wal-Mart 2889 / Clinton,2715 SOUTH 25TH ST,CLINTON,52732,23
3648,Fairbank Food Center,102  4TH ST NORTH BOX 434,FAIRBANK,50629,10
3650,"Spirits, Stogies and Stuff",118 South Main St.,HOLSTEIN,51025,47
3651,Wal-Mart 1491 / Indianola,1500 NORTH JEFFERSON,INDIANOLA,50125,91
3652,Discount Liquors Of Ida Grove,604 W 2ND,IDA GROVE,51445,47
3654,The Beverage Shop / Belmond,207 E MAIN ST,BELMOND,50421,99
3655,M and M Liquor Store,2763 FLOYD BLVD,SIOUX CITY,51104,97
3656,Target Store T-1767 / Ankeny,2135 SE DELAWARE AVE,ANKENY,50021,77
3660,Wal-Mart 2935 / Knoxville,814 W BELL AVE,KNOXVILLE,50138,63
3663,Wal-Mart 1496 / Waterloo,1334 FLAMMANG DR,WATERLOO,50702,7
3664,Shade Tree Liquors,90 10th ST S,NORTHWOOD,50459,98
3666,Target Store T-1771 / Cedar Rapids,3400 EDGEWOOD RD SW,CEDAR RAPIDS,52404,57
3670,Wal-Mart 2827 / Coralville,2801 COMMERCE DR,CORALVILLE,52241,52
3676,T and M Foods,107 E TRAER,GREENE,50636,12
3677,Barb's Service,1290 HWY 18,EVERLY,51338,21
3678,"Smoke Shop, The",1918 SE 14TH ST,DES MOINES,50320,77
3679,FRANKLIN STREET FLORAL & GIFT,103 FRANKLIN ST,MONONA,52159,22
3682,Jumbo's,110 E MAIN ST,WESLEY,50483,55
3688,Fredericksburg Food Center,100 W MAIN ST,FREDERICKSBURG,50630,19
3690,Target Store T-1792 / Waterloo,1501 E SAN MARNAN,WATERLOO,50702,7
3691,Target Store T-1791 / Urbandale,11148 PLUM DR,URBANDALE,50322,77
3692,Wilkie Liquors,724  1ST ST E,MT VERNON,52314,57
3695,Mrs. B's Liquor,623 S MARION ST,REMSEN,51050,75
3696,Wal-Mart 1723 / Des Moines,5101 SE 14TH ST,DES MOINES,50315,77
3697,Oky Doky #2 / Dubuque,51 W 32ND ST PO BOX 300,DUBUQUE,52004,31
3698,Ingersoll Wine Merchants,1300  50TH ST,WEST DES MOINES,50266,77
3700,Avoca Liquor,158 SOUTH ELM,AVOCA,51521,78
3704,Celtics Beverage Company,1122 BROADWAY,EMMETSBURG,50536,74
3705,Liquor Locker,507 1ST AVE #100,ROCK RAPIDS,51246,60
3707,Target Store T-1768 / Cedar Rapids,1030 BLAIRS FERRY RD NE,CEDAR RAPIDS,52402,57
3710,New York Dollar Store,219 MAIN ST,COLUMBUS JUNCTION,52738,58
3712,Monte Spirits,109 N 4TH ST,MONTEZUMA,50171,79
3713,Wal-Mart 0810 / Mason City,4151  4TH ST SW,MASON CITY,50401,17
3715,Kimberly Mart / Davenport,1714 E KIMBERLY RD,DAVENPORT,52807,82
3717,The Liquor Stop / Sumner,201 W 1st ST,SUMNER,50674,9
3719,Wal-Mart 0581 / Marshalltown,2802 S CENTER ST,MARSHALLTOWN,50158,64
3721,Wal-Mart 0913 / Decorah,1798 OLD STAGE RD,DECORAH,52101,96
3722,Wal-Mart 1361 / Sioux City,3400 SINGING HILLS BLVD,SIOUX CITY,51106,97
3723,J D Spirits Liquor,1023  9TH ST,ONAWA,51040,67
3725,Armstrong Liquor Store,101  6TH ST,ARMSTRONG,50514,32
3726,Wal-Mart 1285 / Ottumwa,1940 VENTURE DR,OTTUMWA,52501,90
3728,Brewski's Beverage,726 CREEK TOP,COUNCIL BLUFFS,51503,78
3731,Wal-Mart 1241 / Davenport,5811 ELMORE AVE,DAVENPORT,52807,82
3732,North Scott Foods,425 E LECLAIRE RD,ELDRIDGE,52748,82
3734,"Shortee's Pit Stop, Inc.",215 S RERICK AVE,PRIMGHAR,51245,71
3735,C B Liquor,1202 A AVE EAST,OSKALOOSA,52577,10
3738,Hartig Drug Company #4 / Dubuque,2225 CENTRAL AVE,DUBUQUE,52001,31
3740,Hometown Foods / Waterloo,1010 E MITCHELL AVE,WATERLOO,50702,7
3742,Wal-Mart 1625 / Lemars,1111 HOLTON DR,LEMARS,51031,75
3744,Payless Foods / Dyersville,733 16TH AVE SE,DYERSVILLE,52040,31
3747,T-N-T Liquor,110 SOUTH MAIN,SIGOURNEY,52591,54
3749,Wal-Mart 1526 / Storm Lake,1831 LAKE AVE NW,STORM LAKE,50588,11
3756,Main Street Liquors / Manning,316 MAIN ST,MANNING,51455,14
3757,Wal-Mart 3590 / Sioux City,3101 FLOYD BLVD,SIOUX CITY,51108,97
3760,Brady Mart / Davenport,3107 N BRADY ST,DAVENPORT,52803,82
3761,Cheese's Food Center,200 N WALNUT ST,LENOX,50851,87
3762,Wine and Spirits Gallery,7690 HICKMAN RD,WINDSOR HEIGHTS,50322,77
3763,Main Street Liquors / Hawarden,911 CENTRAL AVE,HAWARDEN,51023,84
3766,Kolby's Liquor Store,419 W MILWAUKEE,NEW HAMPTON,50659,19
3769,Wal-Mart 0753 / Cedar Fall,525 BRANDILYNN BLVD,CEDAR FALLS,50613,7
3772,Shop N Save #1 / Mlk Pkwy,2127 M L KING JR PKWY,DES MOINES,50314,77
3773,Benz Distributing,501 7TH AVE SE,CEDAR RAPIDS,52401,57
3774,Eagle Country Market / Dubuque,1800 ELM ST,DUBUQUE,52001,31
3776,Wal-Mart 5115 / Davenport,3101 WEST KIMBERLY RD,DAVENPORT,52806,82
3778,Family Pantry,4538 LOWER BEAVER RD,DES MOINES,50310,77
3779,"Station Wine and Spirits, T",2324 N 15TH ST,FORT DODGE,50501,94
3782,Bender Foods / Guttenberg,619 S HWY 52,GUTTENBERG,52052,null
3783,Bender Foods / Guttenburg,619 S HWY 52,GUTTENBURG,52052,22
3784,Dyno's Wine and Spirits / Pocahontas,14 1/2 E ELM,POCAHONTAS,50574,76
3785,Hartig Drug #14 / Independence,200  1ST ST EAST,INDEPENDENCE,50644,10
3789,Southside Tobacco and Liquor,2424 SW 9TH ST,DES MOINES,50315,77
3790,Wal-Mart 1393 / Oskaloosa,2203 A AVENUE WEST,OSKALOOSA,52577,62
3791,Wal-Mart 0784 / Mt Pleasan,1045 N GRAND AVE,MT PLEASANT,52641,44
3797,Pit Stop Liquor and Tobacco,111 E HARRISON ST,JEFFERSON,50129,37
3798,The Liquor Store / Davenport,211  W 53RD ST,DAVENPORT,52806,82
3803,Old Calliope Liquor,2021 AVE E,HAWARDEN,51023,84
3805,Strawberry Foods and Deli,128 W MISSION,STRAWBERRY POINT,52076,22
3806,Washington Street Mini Mart,1601 WASHINGTON ST,DAVENPORT,52084,82
3808,Target Store T-1901 / WDM,5405 MILLS CIVIC PKWY,WEST DES MOINES,50266,77
3811,Thriftway,300  4TH ST,LA PORTE CITY,50651,7
3812,Wal-Mart 1431 / Keokuk,300 NORTH PARK DR,KEOKUK,52632,56
3813,Oasis Liquor / Storm Lake,6087 HWY 110 SOUTH,STORM LAKE,50588,11
3814,CGI Foods,104 NORTH FILLMORE,MOUNT AYR,50854,80
3816,Costco Wholesale #788,7205 MILLS CIVIC PKWY,WEST DES MOINES,50266,25
3818,Swils,200 E OAK ST,RED OAK,51566,69
3819,Round Window Liquor,703 W PLEASANT ST,KNOXVILLE,50138,63
3820,Quillins Decorah,915 SHORT ST,DECORAH,52101,96
3822,"Charlie's Wine and Spirits,",507 W 19th St,SIOUX CITY,51103,97
3825,The Secret Cellar,1205 CURTIS BR RD NE,SWISHER,52338,52
3826,Shop N Save #2 / E 14th,1372 E 14TH ST,DES MOINES,50316,77
3829,Terribles Lakeside Casino,777 CASINO DR,OSCEOLA,50213,20
3830,Gary's Foods / Mt Vernon,715  1ST AVE S,MOUNT VERNON,52314,57
3831,Wal-Mart 1435 / Creston,806 LAUREL ST,CRESTON,50801,88
3832,The Market Of Madrid,301 ANNEX RD,MADRID,50156,8
3833,Direct Liquor / Alvord,211 MAIN ST,ALVORD,51230,60
3838,Wal-Mart 3394 / Atlantic,1905 EAST 7TH ST,ATLANTIC,50022,15
3841,Schnucks / Bettendorf,858 MIDDLE RD,BETTENDORF,52722,48
3842,Hartig Drug Company #2 / Locust,157 LOCUST ST,DUBUQUE,52001,31
3845,Bancroft Liquor Store,107 N PORTLAND ST PO BX 222,BANCROFT,50517,55
3847,Otho Convenience and Food,210 NORTH HWY,OTHO,50569,94
3849,Logan Ave Convenience Store,735 LOGAN AVE,WATERLOO,50703,7
3852,Hartig Drug Co #6 / Dyersville,711  16TH AVE SE,DYERSVILLE,52040,31
3853,Clark Of Cedar Rapids,502 E AVE NW,CEDAR RAPIDS,52405,57
3855,Ram Liquor Mart,3108 WEST CENTRAL PARK AVE #2,DAVENPORT,52804,82
3857,Dyno's Wine and Spirits / Storm Lake,1201 1/2 LAKESHORE DR,STORM LAKE,50588,11
3858,Quillins Food Ranch / Waukon,9TH ST SW B,WAUKON,52172,3
3859,Harolds Jack N Jill / Davenport,6723 NW BLVD UNIT 2,DAVENPORT,52806,82
3864,Wal-Mart 0750 / Independence,302 ENTERPRISE DR SW,INDEPENDENCE,50644,10
3866,Hometown Foods / Schaller,201 S MAIN ST PO BX 40,SCHALLER,51053,81
3868,Target Store T-1170 / Ames,320 S DUFF,AMES,50010,85
3869,Wal-Mart 3630 / Marion,5491 BUSINESS HWY 151,MARION,52302,57
3870,Bootleggin' Barzini's Fin,412  1ST AVE,CORALVILLE,52241,52
3871,Target Store T-1939 / Altoona,3414 8TH ST SW,ALTOONA,50009,77
3872,Target Store T-0069 / WDM,1800  35TH ST,WEST DES MOINES,50266,77
3873,Target Store T-0086 / Dubuque,3500 DODGE ST,DUBUQUE,52003,31
3876,Target Store T-1113 / Coralville,1441 CORAL RIDGE AVE,CORALVILLE,52241,52
3877,Affiliated Foods Of Manson,1101 MAIN ST PO BOX 535,MANSON,50563,13
3878,Target Store T-2041 / Des Moines,5901 DOUGLAS AVE,DES MOINES,50322,77
3879,Liquor and Tobacco Outlet /,2128 COLLEGE ST,CEDAR FALLS,50613,7
3880,Target Store T-1800 / Sioux City,5775 SUNNYBROOK DR,SIOUX CITY,51106,97
3881,Target Store T-2454 / Council Bluffs,3804 METRO DR,COUNCIL BLUFFS,51503,78
3882,7 Rayos Liquor Store,120 E MAIN ST,MARSHALLTOWN,50158,64
3885,Kwik Shop #579 / Davenport,2805 TELEGRAPH RD,DAVENPORT,52802,82
3886,Buchanan County Liquor Store,400 EAST FIRST ST,INDEPENDENCE,50644,10
3888,Wal-Mart 0646 / Anamosa,101  115 ST,ANAMOSA,52205,53
3889,Wal-Mart 0647 / Grinnell,415 INDUSTRIAL AVE,GRINNELL,50112,79
3890,Wal-Mart 1005 / Waverly,700  29 ST SW,WAVERLY,50677,9
3891,Smokin' Joe's #7 Tobacco and Liquor,904  1ST AVE NW,CEDAR RAPIDS,52405,57
3894,"Wild Rose Emmetsburg, Llc",777 MAIN ST,EMMETSBURG,50536,74
3895,Smokin' Joe's #6 Tobacco and Liquor,1404  1ST AVE NE,CEDAR RAPIDS,52402,57
3896,Tom's Market and Meats,550 DIVISION ST,BURLINGTON,52601,29
3899,Smokin' Joe's #18 Tobacco and Liquor,1901 BROADWAY ST,IOWA CITY,52240,52
3901,Wal-Mart 3762 / WDM,6365 STAGECOACH DR,WEST DES MOINES,50266,77
3906,Target Store T-0878 / Fort Dodge,2910  1 AVE S,FORT DODGE,50501,94
3907,Cigarette Outlet #17 / Burlington,412 N ROOSEVELT ST,BURLINGTON,52601,29
3908,Smokin' Joe's #16 Tobacco and Liquor,1504 PARK AVE,MUSCATINE,52761,70
3909,County Market #214 / Fort Madison,11802 AVENUE H,FORT MADISON,52627,56
3910,D And S Grocery,104 SE  A ST,MELCHER-DALLAS,50163,63
3911,Riverside Casino And Resort,3184 HIGHWAY 22,RIVERSIDE,52327,92
3912,"Burg Spirits, Llc.",813 1/2 HIGHLAND ST,WILLIAMSBURG,52361,48
3915,Smokin' Joe's #14 Tobacco and Liquor,225 EDGEWOOD RD,CEDAR RAPIDS,52405,57
3916,Sac City Food Pride,106  S 16 ST,SAC CITY,50583,81
3917,Smokin' Joe's #5 Tobacco and Liquor,1115 ALBIA RD,OTTUMWA,52501,90
3918,Smokin' Joe's #2 Tobacco and Liquor,1606 W LOCUST ST,DAVENPORT,52804,82
3920,Smokin' Joe's #1 Tobacco and Liquor,3120 ROCKINGHAM RD,DAVENPORT,52802,82
3925,Smokin' Joe's #11 Tobacco and Liquor,1606 CAMANCHE AVE,CLINTON,52732,23
3926,Johncy's Liquor Store Inc,585 HWY 965 S  STE E,NORTH LIBERTY,52317,48
3928,Liquor Downtown / Iowa City,315 S GILBERT ST,IOWA CITY,52240,52
3929,Smokin' Joe's #12 Tobacco and Liquor,465 HWY 965 UNIT G,NORTH LIBERTY,52317,52
3930,Liquor And Tobacco Outlet,515 1/2 BROADWAY ST,WATERLOO,50703,7
3932,Kuennen's Liquor Store,106 W MAINS ST PO BOX 142,ST LUCAS,52166,33
3934,Main Street Spirits / Mapleton,311 MAIN ST,MAPLETON,51034,67
3942,Wal-Mart 1509 / Maquoketa,103 E CARLISLE,MAQUOKETA,52060,49
3943,Twin Town Liquor,104 HIGHWAY 30 WEST,TOLEDO,52342,86
3944,Good and Quick Co,519 LINCOLNWAY,NEVADA,50201,85
3947,Sam's Club 4973 / Dubuque,4400 ASBURY RD,DUBUQUE,52002,31
3949,Seaton's Flag Foods,122 A EAST FRONT ST,BROOKLYN,52211,79
3950,Wal-Mart 0751 / Pella,1650 WASHINGTON ST,PELLA,50219,63
3952,Hometown Foods / State Center,120 E MAIN ST,STATE CENTER,50247,48
3957,Lot-A-Spirits,3780 STATE ST,BETTENDORF,52722,82
3959,Karl's Grocery Store,101 WEST MADISON,EDGEWOOD,52042,22
3962,Hartig Drug Company #8 / University,1600 UNIVERSITY AVE,DUBUQUE,52001,31
3963,Durant Street Country Stop,618 DURANT ST,HARLAN,51537,83
3964,Tobacco Hut #14 / Council Bluffs,1925 W BROADWAY,COUNCIL BLUFFS,51501,78
3968,Sioux Food Center of Sioux Rapids,621 HWY 71,SIOUX RAPIDS,50585,11
3969,Monroe Liquor,105 W SHERMAN PO BX 1023,MONROE,50170,50
3970,"R 'n D's Liquor, Llc",205 NE 6TH ST,GREENFIELD,50849,1
3972,"The Liquor Cabinet, Inc.","835 6 ST, STE 1",NEVADA,50201,85
3973,Hometown Foods / Hubbard,210 MAPLE ST BOX 295,HUBBARD,50122,42
3976,Mmdg Spirits / Ames,126A WELCH AVE,AMES,50014,85
3980,North English Family Food,119 NORTH MAIN ST,NORTH ENGLISH,52316,48
3981,Wal-Mart 1721 / Iowa City,919 HWY 1 WEST,IOWA CITY,52246,52
3986,Wal-Mart 1152 / Sioux Center,255 16TH ST SW,SIOUX CENTER,51250,84
3987,Siouxland Beverage,1203 5 ST,SIOUX CITY,51101,97
3989,Wine and Spirits Shoppe Of,111 S PHILLIPS ST,ALGONA,50511,55
3990,Liquor On The Corner / Cherokee,300 E MAIN ST,CHEROKEE,51012,18
3993,Cork and Bottle / Oskaloosa,309 A AVE WEST,OSKALOOSA,52577,62
3994,New Star Liquor / W 4th S / Waterloo,1625 WEST 4TH ST,WATERLOO,50701,7
3995,Great Spirits Wine & Liquor Co.,72 NORTH HWY 71,ARNOLDS PARK,51331,30
3997,Barmuda Distribution,6027 University Ave STE 100,CEDAR FALLS,50613,7
4000,Wal-Mart 4606 / Osceola,2400 COLLEGE DR,OSCEOLA,50213,20
4001,Foodland Super Markets / Woodbine,5TH AND LINCOLN WAY,WOODBINE,51579,43
4004,Wal-Mart 1787 / Carroll,2014 KITTY HAWK AVE,CARROLL,51401,14
4005,Wal-Mart 4256 / Ames,534 S DUFF AVE,AMES,50010,85
4006,Lansing Liquor and More,417 MAIN ST,LANSING,52151,3
4007,Larchwood Offsale,913 BROWN ST PO BOX 326,LARCHWOOD,51241,60
4008,Brockmans,109 E MAIN ST,OSSIAN,52161,96
4010,Sioux Valley Spirits,116 E MAIN ST,ANTHON,51004,97
4011,Newman's Thriftway,900 S LOCUST ST,GLENWOOD,51534,65
4012,Jim and Charlies Affiliated,121 NORTH CLINTON,ALBIA,52531,68
4013,Fast Mart,1401 BUCHANAN ST,DES MOINES,50316,77
4014,Wal-Mart 0841 / Tipton,1126 HIGHWAY 38 NORTH,TIPTON,52772,16
4015,Wal-Mart 1732 / Denison,510 C AVE,DENISON,51442,24
4016,Wal-Mart 0749 / Ames,3015 GRAND AVE,AMES,50010,85
4018,Hometown Foods / Conrad,119 N MAIN ST PO BOX 296,CONRAD,50621,38
4019,Hometown Foods / Gladbrook,310 SECOND ST PO BOX 249,GLADBROOK,50635,48
4021,Wal-Mart 1506 / Manchester,1220 WEST MAIN,MANCHESTER,52057,28
4023,Wal-Mart 0985 / Fairfield,2701 W BURLINGTON AVE,FAIRFIELD,52556,51
4024,Wal-Mart 1389 / Boone,1515 SE MARSHALL ST,BOONE,50036,8
4025,Wal-Mart 1546 / Iowa Falls,840 S OAK,IOWA FALLS,50126,42
4026,Karam Kaur Khasriya Llc,702 13TH ST,BELLE PLAINE,52208,6
4027,Marshall Discount Liquor,810 W 7 ST,SIOUX CITY,51103,97
4029,Wal-Mart 1621 / Centerville,23148 HWY 5,CENTERVILLE,52544,4
4030,The Store,204 S MAIN ST,COLESBURG,52035,28
4033,Buy Rite Foods,201 MARKET ST,LAKE PARK,51347,30
4034,"Mcgregor's Top Shelf, Llc",221 MAIN ST,MCGREGOR,52157,22
4035,Spice-n-ice,123 N LAWLER ST,POSTVILLE,52162,3
4036,B and B West,3105 HUDSON RD,CEDAR FALLS,50613,7
4038,Five Star Snacks and More,315 FLETCHER AVE,WATERLOO,50701,7
4039,No Frills Supermarkets / Denison,501 HIGHWAY 39 NORTH,DENISON,51442,24
4040,No Frills Supermarkets / Council Blu,1817 W BROADWAY,COUNCIL BLUFFS,51501,78
4041,No Frills Supermarkets / Council Blu,1801 VALLEY VIEW DR,COUNCIL BLUFFS,51503,78
4042,Mandm Pantry,2344 CAMANCHE AVE,CLINTON,52732,23
4043,Lake Ohana Market / Mineola,23226 CENTRE DR,GLENWOOD,51534,65
4044,Gasland #102 / Burlington,1703 MT PLEASANT ST,BURLINGTON,52601,29
4046,Kum & Go #713 / Burlington,421 N MAIN ST,BURLINGTON,52601,29
4049,J and K Market,113 W VANBUREN,CENTERVILLE,52544,4
4050,No Frills Supermarkets / Glenwood,423 SHARP ST,GLENWOOD,51534,65
4051,Five Star Snacks and Liquor,437 SULLIVAN,WATERLOO,50701,7
4052,Fareway Stores #639 / Maquoketa,110 WESTGATE DR,MAQUOKETA,52060,49
4057,Helle Hometown Variety,"300  1ST ST, STE F",SERGEANT BLUFF,51054,97
4059,Tequila's Liquor Store,1434 DES MOINES ST STE 5,DES MOINES,50316,77
4062,Belle Plaine Country Food,1206 7TH AVE,BELLE PLAINE,52208,6
4066,H and A Mini Mart Corp,145 UNIVERSITY AVE,DES MOINES,50314,77
4067,Xpress Liquor,1201 NORTH JEFFERSON STE 100,INDIANOLA,50125,91
4068,Freeman Foods,268 8TH AVE,WELLMAN,52356,90
4069,Sa Petro Mart,136  1ST ST,WEST DES MOINES,50265,77
4070,Fareway Stores #648 / Ottumwa,1325 ALBIA RD,OTTUMWA,52501,90
4071,Grieder Beverage Depot,708  13TH ST,BELLE PLAINE,52208,6
4072,Kellogg Country Store,103 BLAIR ST,KELLOG,50136,50
4073,Famous Liquors,2604 W LOCUST ST,DAVENPORT,52804,82
4075,"Uptown Liquor, Llc",306 HWY 69 SOUTH,FOREST CITY,50436,95
4076,Ali's West Side Liquor,919 W 5TH ST,WATERLOO,50701,7
4077,Sakar Liquor Store,1026 W RIVER DR #B,DAVENPORT,52802,82
4078,Xo Food And Liquor,428 FRANKLIN ST,WATERLOO,50703,7
4080,Prime Mart 4,2323 MAIN ST,CEDAR FALLS,50613,7
4081,Five Corners Liquor and Win,809 EAST 18 ST,CEDAR FALLS,50613,7
4083,Harlan's Food Mart,306 WASHINGTON,STORY CITY,50248,85
4084,Fareway Stores #909 / Ankeny,109 SE ORALABOR RD,ANKENY,50021,77
4085,Fareway Stores #061 / Ankeny,3205 NORTH ANKENY BLVD,ANKENY,50023,77
4090,Save More Foods / Waterloo,1975 FRANKLIN ST,WATERLOO,50703,7
4091,Mcelroy's Food Market,135 MADISON ST,WINTHROP,50682,10
4092,Fareway Stores #705 / Clear Lake,910 HWY 18 W,CLEAR LAKE,50428,17
4093,Fareway Stores #077 / Norwalk,1711 SUNSET DR,NORWALK,50211,91
4094,Hiway 20 Liquors / Fort Dodge,1724  5TH AVE SOUTH,FORT DODGE,50501,94
4095,Campustown Liquor,218 WELCH AVE STE 3,AMES,50015,85
4097,City Liquor And Tobacco / Waterloo,200 BROADWAY ST,WATERLOO,50703,7
4098,Schleswig Foods And Spirits,108  2ND ST,SCHLESWIG,51461,24
4099,Wal-Mart 1475 / Washington,2485 HWY 92,WASHINGTON,52353,92
4101,Chubbys Liquor,68 MONROE PO BOX 249,FLOYD,50435,34
4102,Lucky Stop Inc.,301 WATER ST  PO BOX 166,CAMBRIDGE,50046,85
4103,Fareway Stores #386 / Ames,619 BURNETT AVE,AMES,50010,85
4104,Fareway Stores #093 / Ames,3619 STANGE RD,AMES,50010,85
4105,Fareway Stores #491 / Mason City,400 NORTH DELAWARE AVE,MASON CITY,50401,17
4106,Fareway Stores #426 / Nevada,1505 SOUTH B AVE,NEVADA,50201,85
4107,Hartig Drug Co. / JFK Rd / Dubuque,2255 JOHN F KENNEDY RD,DUBUQUE,52002,31
4108,Fareway Stores #384 / Boone,1711 HAWKEYE DR,BOONE,50036,8
4109,Oasis Grocery and Liquor /,2917 PAYNE,DES MOINES,50310,77
4110,Best Trip,1516 SE 1ST,DES MOINES,50315,77
4112,"Brothers Market, Inc.",706 HIGHWAY 57,PARKERSBURG,50665,12
4113,Corridor Ventures,618 MEADE DR,NORTH LIBERTY,52317,52
4114,Tobacco Hut #6 / Council,3134 MANAWA CENTRE DR,COUNCIL BLUFFS,51501,78
4115,After 5 Somewhere,704 W 7TH ST PO BOX 372,ATLANTIC,50022,15
4116,Forest Market Convenience,2105 FOREST,DES MOINES,50311,77
4117,Lake View Foods,223 MAIN ST,LAKE VIEW,51450,81
4118,Tobacco Shop / Arnolds Park,612 S HIGHWAY 71 UNIT 4,ARNOLDS PARK,51331,30
4119,Lake View Redemption Center,502 5th Street,LAKE VIEW,51450,81
4121,Target Store T-2526 / Cedar Falls,214 VIKING PLAZA DR,CEDAR FALLS,50613,7
4125,Newport Bp / Wapello,13410 STATE HWY 78,WAPELLO,52653,58
4126,Wapello Jack and Jill,503 HWY 61 SOUTH,WAPELLO,52653,58
4129,Sam's Mainstreet Market / Solon,123 E MAIN ST,SOLON,52333,52
4130,Cyclone Liquors,626 LINCOLN WAY,AMES,50010,85
4131,"Boyd Grocery, Inc.",20611 HWY 1 N,KEOSAUQUA,52565,89
4132,Fareway Stores #933 / Urbandale,8450 MEREDITH DR,URBANDALE,50322,77
4133,Camanche Food Pride,908 7TH AVE,CAMANCHE,52730,23
4134,Mccoy's 1447,1447  2ND ST,WEBSTER CITY,50595,40
4135,Pleasantville Grocery,105 W MONROE ST,PLEASANTVILLE,50225,63
4136,Fareway Stores #925 / Altoona,620 SE 8TH ST,ALTOONA,50009,77
4137,Fareway Stores #983 / Grimes,351 GATEWAY DR,GRIMES,50111,77
4138,Fareway Stores #989 / Waukee,200 SE LAUREL ST,WAUKEE,50263,25
4139,Fareway Stores #657 / Indianola,1309 W 2ND,INDIANOLA,50125,91
4140,University Groceries,2121 UNIVERSITY AVE,DES MOINES,50314,77
4141,Fareway Stores #900 / Euclid,100 EUCLID AVE,DES MOINES,50313,77
4143,Fareway Stores #975 / SE 22nd / DSM,3000 SE 22ND ST,DES MOINES,50320,77
4144,Bucky's,603  E HWY 24,LAWLER,52154,19
4146,"Liquor, Beer and Tobacco Outlet",1908 CLARK ST,CHARLES CITY,50616,34
4147,Fareway Stores #561 / Waverly,220 W BREMER AVE,WAVERLY,50677,9
4148,Fareway Stores #974 / Cedar Falls,214 N MAGNOLIA DR,CEDAR FALLS,50613,7
4149,Fareway Stores #479 / Independence,1400 3RD AVE SE,INDEPENDENCE,50644,10
4150,Fareway Stores #015 / Denison,609 ARROWHEAD DR,DENISON,51442,24
4152,Fareway Stores #951 / Waterloo,40  W SAN MARNAN,WATERLOO,50701,7
4153,Food Land Super Markets / Missouri V,407 W HURON,MISSOURI VALLEY,51555,43
4154,Fareway Stores #067 / Evansdale,215 S EVANS RD,EVANSDALE,50707,7
4155,Fareway Stores #055 / Hiawatha,885 MILLER RD,HIAWATHA,52233,57
4156,Fareway Stores #949 / Marion,3300 10TH AVE,MARION,52302,57
4157,Fareway Stores #412 / Oelwein,102  2ND AVE SE,OELWEIN,50662,33
4158,Fareway Stores #993 / North Liberty,615 WESTWOOD DR   P.O Box 96,NORTH LIBERTY,52317,52
4159,Fareway Stores #409 / Carroll,709 MONTEREY DR,CARROLL,51401,14
4160,Fareway Stores #073 / Council Bluffs,310 MCKENZIE AVE,COUNCIL BLUFFS,51503,78
4161,Fareway Stores #034 / Iowa City,2765 COMMERCE DR,IOWA CITY,52240,52
4162,Fareway Stores #950 / Iowa City,2530 WESTWINDS DR,IOWA CITY,52246,52
4163,Fareway Stores #963 / Cedar Rapids,4220  16TH AVE SW,CEDAR RAPIDS,52404,57
4164,Fareway Stores #461 / Storm Lake,731 SENECA ST,STORM LAKE,50588,11
4165,Expo Mart / Bettendorf,1810 STATE ST,BETTENDORF,52722,82
4166,I-35 Spirits / Ankeny,113 SE DELAWARE AVE STE 101,ANKENY,50023,77
4167,Jesup Food Center,1314  7TH ST,JESUP,50648,10
4169,"Iowa Street Market, Inc.",1256 IOWA ST,DUBUQUE,52001,31
4170,Super Quick 2 / Hubbell,1824 HUBBELL AVE,DES MOINES,50317,77
4171,Dewey's Jack and Jill,115 E MAIN ST  PO BOX 359,WEST BRANCH,52358,16
4172,"Brothers Market, Inc. / Cascade",105 SE NIXON ST,CASCADE,52033,31
4173,Shamrock Spirits,1204 WATER ST PO BOX 177,ALDEN,50006,42
4174,L and K Liquor,132 NORTH MAIN ST PO BOX 306,PAULLINA,51046,71
4176,Cigarette Outlet #3 / Ft Madison,1737  AVE H,FORT MADISON,52627,56
4177,Todds On The Go,235 EDGEWOOD RD NE,CEDAR RAPIDS,52405,57
4180,"Good Luck, Inc.",806 W MAIN ST,LE GRAND,50142,64
4181,Smokin' Joe's #10 Tobacco and Liquor,480 7TH AVE,MARION,52302,57
4182,Puff N Snuff,1101 RHOMBERG AVE,DUBUQUE,52001,31
4183,Fareway Stores #008 / Dyersville,1207  12TH AVE SE,DYERSVILLE,52040,31
4184,Fareway Stores #589 / Decorah,103 E MAIN,DECORAH,52101,96
4185,Fareway Stores #998 / Muscatine,2100 CEDAR PLAZA DR,MUSCATINE,52761,70
4186,Fareway Stores #737 / Grinnell,727 WEST ST,GRINNELL,50112,79
4187,H and A Mini Mart / Phillips 66,5901 FLEUR DR,DES MOINES,50321,77
4188,Jensen Liquor North,109  5TH ST,SIBLEY,51249,72
4189,"Main St. Market, Inc.",882 MAIN ST,HOLY CROSS,52053,31
4190,Fareway Stores #594 / Manchester,109 EAST MARION ST,MANCHESTER,52057,28
4191,Fareway Stores #888 / Jefferson,1207 N ELM ST,JEFFERSON,50129,37
4192,Fareway Stores #995 / Pella,2010 WASHINGTON ST,PELLA,50219,63
4193,Fareway Stores #044 / Bettendorf,3800 BELMONT RD,BETTENDORF,52722,82
4194,Hartley Wine And Spirits,361  3RD ST NW,HARTLEY,51346,71
4195,Fareway Stores #848 / Newton,120 N 3RD AVE E,NEWTON,50208,50
4196,Fareway Stores #792 / Toledo,1005 S COUNTY LINE RD,TOLEDO,52342,86
4197,Fareway Stores #987 / Davenport,1635 WEST 53RD ST,DAVENPORT,52806,82
4200,Fareway Stores #014 / Sergeant Bluff,700  1ST ST,SERGEANT BLUFF,51054,97
4201,Fareway Stores #019 / Sioux City,4016 INDIAN HILLS DR,SIOUX CITY,51108,97
4202,Fareway Stores #022 / Sioux City,4040 WAR EAGLE DR,SIOUX CITY,51109,97
4203,Fareway Stores #829 / Sioux City,4267 SERGEANT RD,SIOUX CITY,51106,97
4204,Liquor and Tobacco Outlet /,620 W BREMER AVE,WAVERLY,50677,9
4205,Fareway Stores #025 / Clinton,1350 11TH ST NW,CLINTON,52733,23
4209,Fareway Stores #467 / Marshalltown,102 WEST ANSON ST,MARSHALLTOWN,50158,64
4210,Wal-Mart 5748 / Grimes,2150 EAST 1ST ST,GRIMES,50111,77
4213,Sichanh Liquor Store,812 FLINDT DR,STORM LAKE,50588,11
4214,Sunny's Mart,630 N 3RD ST,CLINTON,52732,23
4215,New Star Liquor / Lafayet / Waterloo,1309 LAFAYETTE ST,WATERLOO,50703,7
4218,New Star Market #1 / Waterloo,9 N ELK RUN RD,WATERLOO,50703,7
4219,Liquor and Tobacco Outlet /,2844 UNIVERSITY AVE,WATERLOO,50701,7
4221,Lake Liquors Wine and Spirits,910 N 8TH ST W,CLEAR LAKE,50428,17
4222,Kwik Stop / Texas St,4335 TEXAS ST,WATERLOO,50702,7
4223,Station Mart Liquor and Tobbacco,3594 LAFAYETTE ST,EVANSDALE,50707,7
4225,STATION MART LIQUOR AND TOBACCO,1119 RIVER FOREST RD,EVANSDALE,50707,7
4226,T P Plaza,1701 IOWA AVE,MARSHALLTOWN,50158,64
4228,Hartig Drug #12 / Waukon,21 W MAIN ST,WAUKON,52172,3
4229,Fareway Stores #462 / Vinton,501 A AVE,VINTON,52349,6
4230,Fareway Stores #790 / Harlan,1910  23RD ST,HARLAN,51537,83
4231,Fareway Stores #106 / Clive,10151 UNIVERSITY AVE,CLIVE,50325,77
4232,Fareway Stores #719 / Le Mars,115 PLYMOUTH ST NE,LE MARS,51031,75
4233,"Elliott's General Store,",23828 HWY J18,MORAVIA,52571,4
4234,Fareway Stores #815 / Cresco,112 S ELM ST,CRESCO,52136,45
4235,Fareway Stores #788 / Spencer,104 E EIGHTH ST,SPENCER,51301,21
4236,Fareway Stores #395 / Webster City,942  2ND ST,WEBSTER CITY,50595,40
4239,Fareway Stores #551 / Eagle Grove,205 NW  1ST ST,EAGLE GROVE,50533,99
4246,Fareway Stores #850 / Spirit Lake,1906 KEOKUK,SPIRIT LAKE,51360,30
4247,Fareway Stores #938 / Shenandoah,1007 S FREMONT ST,SHENANDOAH,51601,73
4248,Fareway Stores #879 / Belmond,115 SECOND  AVE SE,BELMOND,50421,null
4249,Fareway Stores #021 / Sheldon,2603 PARK ST,SHELDON,51201,71
4250,Fareway Stores #048 / Clarinda,115 ESSIE DAVISON DR,CLARINDA,51632,73
4251,Fareway Stores #882 / Eldora,1232 14TH ST,ELDORA,50627,42
4252,Aj's Liquor / Ames,4518 MORTENSON RD STE 109,AMES,50014,85
4253,Fareway Stores #840 / Monticello,433 N FARLEY ST,MONTICELLO,52310,53
4254,Fareway Stores #683 / Winterset,719 W HWY 92,WINTERSET,50273,61
4255,Fareway Stores #849 / Emmetsburg,2008  12TH ST,EMMETSBURG,50536,74
4256,FAREWAY STORES #058 / ORANGE CITY,512  8TH SE,ORANGE CITY,51041,84
4257,Fareway Stores #912 / Sioux Center,115  1ST AVE NW,SIOUX CENTER,51250,84
4258,Broadway Liquor,821 BROADWAY,WATERLOO,50703,7
4259,Fareway Stores #009 / Burlington,920 LAWRENCE DR,BURLINGTON,52601,29
4260,Kum & Go #175 Liquors / Oskaloosa,901 S MARKET,OSKALOOSA,52577,62
4262,Fareway Stores #699 / Osceola,215 S MAIN ST,OSCEOLA,50213,20
4265,Cork and Bottle / Carroll,1004 HIGHWAY 30 W,CARROLL,51401,14
4266,Kwik Stop 3 / Waterloo,1104 WASHINGTON ST,WATERLOO,50702,7
4267,Wal-Mart 1683 / Shenandoah,705 S FREMONT,SHENANDOAH,51601,73
4268,Main Street Market Of Anita,735 MAIN ST,ANITA,50020,15
4269,Fareway Stores #531 / Algona,1905 HIGHWAY 18 E,ALGONA,50511,55
4270,Tipton Family Foods,610 CEDAR ST,TIPTON,52772,16
4271,Kum & Go Liquors #37 / Ottumwa,2508 N COURT ST,OTTUMWA,52501,90
4272,Fareway Stores #827 / Centerville,305 S 18TH ST,CENTERVILLE,52544,4
4273,Fareway Stores #407 / Esterville,1108 CENTRAL AVE,ESTHERVILLE,51334,32
4274,Smokin' Joe's #4 Tobacco and Liquor,2800 E UNIVERSITY AVE,DES MOINES,50317,77
4275,Ruthven Meat Processing,1701 RAILROAD ST,RUTHVEN,51358,74
4276,Fareway Stores #980 / Knoxville,1308 S LINCOLN ST,KNOXVILLE,50138,63
4277,Wj's Liquor,107 N MILL ST,LAKE MILLS,50450,95
4279,Cork It!,769 PROSPECT ST SW,LE MARS,51031,75
4280,Keota Eagle Foods,217 E BROADWAY,KEOTA,52248,54
4282,Slagle's Grocery / Le Claire,1301 EAGLE RIDGE RD,LE CLAIRE,52753,82
4283,Point Liquor and Tobacco /,4107 CENTER POINT RD,CEDAR RAPIDS,52402,57
4284,Guppys On The Go,680 LINDALE DR,MARION,52302,57
4285,Fareway Stores #559 / Iowa Falls,500 IOWA ST,IOWA FALLS,50126,42
4288,Fareway Stores #922 / New Hampton,102 S WATER AVE,NEW HAMPTON,50659,19
4289,Uptown Liquor and Tobacco,2000 WILEY BLVD SW STE 106,CEDAR RAPIDS,52404,57
4291,Fareway Stores #062 / Waukon,777  11TH AVE SW,WAUKON,52172,3
4293,Fareway Stores #597 / Creston,105 E ADAMS ST,CRESTON,50801,88
4294,Eddyville Market and Deli L,121 WALNUT,EDDYVILLE,52553,90
4295,Lena's Liquors,1544 SUPERIOR ST,WEBSTER CITY,50595,40
4296,Nat Food Mart #1 / Hubbell,3804 HUBBELL,DES MOINES,50317,77
4297,Circle B Market,111 MAIN ST,KEOSAUQUA,52565,89
4298,Discount Liquor / Cedar Rapids,2933  1ST AVE SE,CEDAR RAPIDS,52402,57
4299,Terry's Food Center,305 CRISMAN ST,DYSART,52224,86
4300,Hometown Market / Central City,9 WATERHOUSE AVE,CENTRAL CITY,52214,57
4301,Fareway Stores #625 / Oskaloosa,311  3RD AVE W,OSKALOOSA,52577,62
4302,Sahota Food Mart,1805 SE 14TH ST,DES MOINES,50320,77
4303,Shop N Save / Des Moines,1829 6TH AVE,DES MOINES,50314,77
4304,Mepo Foods,111 N WAPELLO,MEDIAPOLIS,52637,29
4306,Downtown Pantry / Des Moines,208  4TH ST,DES MOINES,50309,77
4307,Northside One Stop / Hampton,1208  4TH ST NE,HAMPTON,50441,35
4308,Crossroads Wine and Liquor,117 IOWA AVE,DUNLAP,7122,43
4309,Keystone Liquor and Wine / Coralvill,517  2ND ST STE 2,CORALVILLE,52241,52
4310,The Party Pantry,430 S 35TH ST,COUNCIL BLUFFS,51501,78
4311,Fareway Stores #502 / Cherokee,205 WEST BLUFF ST,CHEROKEE,51012,18
4312,Fareway Stores #508 / Fort Dodge,1231  1ST AVE S,FORT DODGE,50501,94
4313,I-80 Liquor / Council Bluffs,2411 S 24TH ST #1,COUNCIL BLUFFS,51501,78
4314,Fareway Stores #940 / Atlantic,301 POPLAR ST,ATLANTIC,50022,15
4315,Nodaway Valley Market,304  4TH ST,FONTANELLE,50846,1
4317,Fareway Stores #554 / Washington,301 NORTH MARION AVE,WASHINGTON,52353,92
4318,Fareway Stores #941 / Greenfield,212 SW KENT,GREENFIELD,50849,1
4319,Fareway Stores #841 / Red Oak,811 BROADWAY,RED OAK,51566,69
4320,Fareway Stores #703 / Humbolt,710 FIRST AVE N,HUMBOLDT,50548,46
4321,Fareway Stores #470 / Perry,1315 WILLIS AVE,PERRY,50220,8
4322,Fareway Stores #501 / Charles City,210  11TH ST,CHARLES CITY,50616,34
4323,Hometown Foods / Baxter,103 N MAIN ST,BAXTER,50028,50
4324,Liquor And Tobacco Outlet,902  1ST AVE N,FORT DODGE,50501,94
4325,Dayton Community Grocery,22 NORTH MAIN,DAYTON,50530,94
4326,Villisca Foods Inc.,509 S 3RD AVE,VILLISCA,50864,69
4327,Stratford Food Center,829 SHAKESPEARE AVE,STRATFORD,50249,40
4328,Quick Mart / Hiawatha,655 ROBBINS RD,HIAWATHA,52233,57
4329,Jr's On The Rocks,313 COLLEGE DR,DECORAH,52101,96
4330,Super Stop Ii / Altoona,2635 ADVENTURELAND DR,ALTOONA,50009,77
4331,Ryan's Quick Shop,702 1ST AVE E,NEWTON,50208,50
4332,Moore's Foods,303 HIGHWAY 150 N,WEST UNION,52175,33
4333,Fast Mart / University Ave,1621 UNIVERSITY AVE,DES MOINES,50314,77
4334,Liquorama,1117 EAST 4TH,WATERLOO,50703,7
4335,Fareway Stores #114 / Dubuque,2050 JOHN F KENNEDY RD,DUBUQUE,52001,31
4336,The Bottle Shop / Inwood,313 S MAIN ST,INWOOD,51240,60
4337,Last Call 2,120 N MAIN ST,GEORGE,51237,60
4338,Grand Falls Casino Resort,1415 GRAND FALLS BLVD,LARCHWOOD,51241,60
4340,Randhawa's Travel Center,1659D MARSHALLTOWN BLVD,MELBOURNE,50162,64
4341,Dahl's Foods / Ames,3121 GRAND AVE,AMES,50010,85
4343,Mj's Grocery,524 MAIN ST,GRISWOLD,51535,15
4344,Best Food Mart / Des Moines,4028 NE 14TH ST,DES MOINES,50313,77
4345,Spirits / Grimes,109 EAST 1ST ST STE B,GRIMES,50111,77
4346,Lucky Mart,1031 WEST ST,GRINNELL,50112,79
4347,Roy's Foodland,105 PEARL ST,SHELLSBURG,52332,6
4348,Jeff's Market / Blue Grass,102 W MAYNE,BLUE GRASS,52726,82
4349,Jeff's Market / Wilton,101 E 4TH,WILTON,52778,70
4350,Southside Food Mart,1101 ARMY POST RD,DES MOINES,50315,77
4351,Kum & Go #703 / Marshalltown,916 E MAIN ST,MARSHALLTOWN,50158,64
4352,Kum & Go #301 / Clear Lake,2325 7th Ave North N,CLEAR LAKE,50248,17
4353,Kum & Go #501 / Creston,301 W TAYLOR ST,CRESTON,50801,88
4354,Kum & Go #302 / Clear Lake,2905 FOURTH AVE,CLEAR LAKE,50248,17
4355,Kum & Go #4205 / Shenandoah,1303 W SHERIDAN AVE,SHENANDOAH,51601,73
4356,Kum & Go #124 / Story City,1554 BROAD ST,STORY CITY,50248,85
4357,Kum & Go #396 / Nevada,136 LINCOLN HWY,NEVADA,50201,85
4358,Kum & Go #125 / Story City,527 PARK AVE,STORY CITY,50248,85
4359,Kum & Go #553 / Clarion,300 CENTRAL AVE W,CLARION,50525,99
4360,Kum & Go #75 / Waukee,350 SE UNIVERSITY AVE,WAUKEE,50263,25
4361,Kum & Go #333 / Newton,405 1ST AVE E,NEWTON,50208,50
4362,Quik Trip #538 / NW 2nd / DSM,4575 NW 2ND,DES MOINES,50313,77
4363,Kum & Go #135 / Polk City,303 W BROADWAY ST,POLK CITY,50226,77
4364,Kum & Go #33 / Osceola,400 S MAIN ST,OSCEOLA,50213,20
4365,Kum & Go #22 / Grinnell,715 LANG CREEK AVE,GRINNELL,50112,79
4366,Kum & Go #222 / West St Grinnell,1002 WEST ST,GRINNELL,50112,79
4367,Kum & Go #137 / Tiffin,101 VILLAGE DR,TIFFIN,52340,52
4368,Kum & Go #109 / Mason City,1224 N FEDERAL AVE,MASON CITY,50401,17
4369,Kum & Go #570 / Johnston,5800 NORTHGLEN DR,JOHNSTON,50131,77
4370,Kum & Go #28 / Norwalk,2992 SUNSET DR,NORWALK,50211,91
4371,Kum & Go #240 / North Ave Norwalk,530 NORTH AVE,NORWALK,50211,91
4372,Kum & Go #50 / West Des Moines,745 S 51ST ST,WEST DES MOINES,50265,77
4373,Kum & Go #404 / Mason City,1303 4TH ST SW,MASON CITY,50401,17
4374,Kum & Go #74 / West Des Moines,141 S JORDAN CREEK PKWY,WEST DES MOINES,50266,77
4375,Kum & Go #141 / Grimes,1950 PRINCETON DR,GRIMES,50111,77
4376,Kum & Go #237 / Grimes,801 N 1ST ST,GRIMES,50111,77
4377,Kum & Go #6 / Mason City,1920 S FEDERAL AVE,MASON CITY,50401,17
4378,Quik Trip #562 / NE 14th / DSM,4801 NE 14TH ST,DES MOINES,50313,77
4379,Kum & Go #202 / 4th St Waukee,85  4TH ST,WAUKEE,50263,25
4380,Kum & Go #2091 / Ashworth / WDM,5969 ASHWORTH RD,WEST DES MOINES,50266,77
4381,Kum & Go #254 / West Branch,620 S DOWNEY ST,WEST BRANCH,52358,16
4382,Kum & Go #443 / Williamsburg,2177 M AVE,WILLIAMSBURG,52361,48
4383,Kum & Go #8 / 8th St / WDM,1293 8TH AVE,WEST DES MOINES,50265,77
4384,Kum & Go #500 / Creston,903 N SUMMER AVE,CRESTON,50801,88
4385,Kum & Go #2093 / Adel,409 NILE KINNICK DR,ADEL,50003,25
4386,Kum & Go #43 / New Virginia,1453 CO HWY G76,NEW VIRGINIA,50210,91
4387,KUM & GO #701 / MARSHALLTOWN,613 N. 3RD AVE N,MARSHALLTOWN,50158,64
4388,KUM & GO #117 / SPIRIT LAKE,300 18TH ST,SPIRIT LAKE,51360,30
4389,QUIK TRIP #566 / CLIVE,11925 UNIVERSITY AVE,CLIVE,50325,77
4390,KUM & GO #651 / ALBIA,204 S MAIN ST,ALBIA,52531,68
4391,KUM & GO #233 / CLARINDA,1400 E WASHINGTON ST,CLARINDA,51632,73
4392,KUM & GO #236 / GREENFIELD,508 SE KENT ST,GREENFIELD,50849,1
4393,KUM & GO #156 / CLIVE,15600 HICKMAN RD,CLIVE,50325,77
4394,KUM & GO #206 / CLIVE,1725 NW 86TH ST,CLIVE,50325,77
4395,KUM & GO #606 / HARLAN,702 CHATBURN AVE,HARLAN,51537,83
4396,KUM & GO #133 / ELLSWORTH,1111 IA HIGHWAY 175,ELLSWORTH,50075,40
4397,"Trunck's Country Foods, INC.",606 GRUNDY AVE,REINBECK,50669,38
4398,Quik Trip #514 / Ankeny,802 E 1ST ST,ANKENY,50021,77
4399,KUM & GO #4786 / BELMOND,112 RIVER AVE S,BELMOND,50421,99
4400,KUM & GO #59 / WAUKEE,33083 UTE AVE,WAUKEE,50263,25
4401,Kum & Go #174 / OSKALOOSA,413 A AVE W,OSKALOOSA,52577,62
4402,KUM & GO #503 / MARION,3215 7TH AVE,MARION,52302,57
4403,KUM & GO #80 / RIVERSIDE,1178 ENTERPRISE DR,RIVERSIDE,52327,92
4404,KUM & GO #4098 / WINDSOR HEIGHTS,7229 Universty Ave,Windsor Heights,50311,77
4405,KUM & GO #292 / ANKENY,1825 N ANKENY BLVD,ANKENY,50021,77
4406,KUM & GO #92 / ANKENY,1025 E  1ST ST,ANKENY,50021,77
4407,KUM & GO #4020 / ANKENY,1910 SW WHITE BIRCH CIRCLE,ANKENY,50023,77
4408,KUM & GO #1272 / KNOXVILLE,1201 E MAIN ST,KNOXVILLE,50138,63
4409,KUM & GO #2217 / BOONE,315 STORY ST,BOONE,50036,8
4410,Kum & Go #90 / BOONE,1704 S STORY ST,BOONE,50036,8
4411,Kum & Go #203 / Perry,1219 1ST ST,PERRY,50220,8
4412,KUM & GO #95 / DE SOTO,1203 GUTHRIE ST,DE SOTO,50069,25
4413,Kum & Go #267 / Tipton,2050 IA HIGHWAY 38,TIPTON,52772,16
4414,KUM & GO #439 / WAPELLO,303 US HWY 61 N,WAPELLO,52653,58
4415,KUM & GO #23 / NEOLA,29356 298TH ST,NEOLA,51559,78
4416,KUM & GO #513 / ACKLEY,420 SHERMAN ST,ACKLEY,50601,42
4417,KUM & GO #83 / CASEY,501 ANTUQUE COUNTRY DR,CASEY,50048,39
4418,KUM & GO #76 / ADAIR,109 S 5TH ST,ADAIR,50002,1
4419,KUM & GO #46 / WALNUT,1709 ANTIQUE CITY DR,WALNUT,51577,78
4420,KUM & GO #4 / LAMONI,2091 E MAIN ST,LAMONI,50140,27
4421,KUM & GO #38 / OTTUMWA,534 CHURCH ST,OTTUMWA,52501,90
4422,KUM & GO #1 / HAMPTON,609 CENTRAL AVE W,HAMPTON,50441,35
4424,KUM & GO #193 / STUART,104 N DIVISION ST,STUART,50250,1
4425,CIRCLE K #6601 / BURLINGTON,1012 MAPLE ST,BURLINGTON,52601,29
4426,Quik Trip #575 / Council Bluffs,1749 W BROADWAY ST,COUNCIL BLUFFS,51501,78
4427,LIQUOR AND GROCERY DEPOT,114 CENTRAL ST N Suite 1,MARSHALLTOWN,50158,64
4428,Kum & Go #507 / North Liberty,610 N KANSAS AVE,NORTH LIBERTY,52317,52
4429,Kum & Go #200 / Ames,4510 MORTENSEN RD,AMES,50014,85
4430,Kum & Go #32 / Colfax,1200 N WALNUT ST,COLFAX,50054,50
4431,Kum & Go #87 / Fort Dodge,1601 FIFTH AVENUE S,FORT DODGE,50501,94
4432,Kum & Go #89 / Fort Dodge,115 N 22ND ST,FORT DODGE,50501,94
4433,Kum & Go #201 Coralville,822 1ST AVE,CORALVILLE,52241,52
4434,Kum & Go #24  Pleasant Hill,5970 MORNING STAR CT,PLEASANT HILL,50317,77
4435,Todd's,209 S UNION ST,ROCK RAPIDS,51246,60
4436,Kum & Go #220  Council Bluffs,2024 5TH AVE,COUNCIL BLUFFS,51501,78
4437,Kum & Go #216  Ames,203 WELCH AVE,AMES,50010,85
4438,Kum & Go #215  Ames,4506 LINCOLN WAY,AMES,50010,85
4439,Kum & Go #214  Ames,111 DUFF AVE,AMES,50010,85
4440,CENTER POINT FOODS,800 FORD LANE,CENTER POINT,52213,57
4441,Kum & Go #219  Council Bluffs,154 BENNETT AVE,COUNCIL BLUFFS,51503,78
4442,SPEEDE SHOP,204 N Main St,Garnavillo,52049,22
4443,A-TOWN LIQUOR STORE,212 10TH ST,ALTON,51003,84
4444,Palo Mini Mart,1204 1ST ST,PALO,52324,57
4445,Kum & Go #4127 / SLOAN,1864 HWY 141,SLOAN,51055,97
4446,Kum & Go #196 / WEBSTER CITY,1102 2ND ST,WEBSTER CITY,50595,40
4447,QUIK TRIP #513 / URBANDALE,4600 MERLE HAY RD,URBANDALE,50322,77
4448,QUIK TRIP #567 / URBANDALE,"9915, DOUGLAS AVE",URBANDALE,50322,77
4449,Kum & Go #572 / URBANDALE,4860 NW URBANDALE DR,URBANDALE,50322,77
4450,Kum & Go #121 / URBANDALE,12041 DOUGLAS PKWY,URBANDALE,50322,77
4451,Kum & Go #157 / URBANDALE,4585 156TH ST,URBANDALE,50323,77
4452,Kum & Go #96 / WEBSTER CITY,1803 SUPERIOR ST,WEBSTER CITY,50595,40
4453,Select Mart    Gordon Dr,2825 GORDON DR,SIOUX CITY,51105,97
4454,SID'S GAS and GROCERIES,"1116, HWY 69 SOUTH",FOREST CITY,50436,95
4455,Kum & Go #248 / Sioux City,2026 RIVERSIDE BLVD,SIOUX CITY,51109,97
4456,Kum & Go #1959 / Eldora,2359 EDGINGTON AVE,ELDORA,50627,42
4457,Kum & Go #53 / Iowa City,955 MORMAN TREK BLVD,IOWA CITY,52246,52
4458,KUM & GO #422 / IOWA CITY,513 S RIVERSIDE DR,IOWA CITY,52240,52
4459,QUIK TRIP #568 / JOHNSTON,5169 MERLE HAY RD,JOHNSTON,50131,77
4460,Kum & Go #544 / Eagle Grove,1120 S COMMERCIAL,EAGLE GROVE,50533,99
4461,MOORE'S FOODS,808 S Main St,Monona,52159,22
4462,QUIK TRIP #503 / WINDSOR HEIGHTS,7220 HICKMAN RD,WINDSOR HEIGHTS,50324,77
4463,SHELTON'S,"113, 1ST ST NW",BUFFALO CENTER,50424,95
4464,Casey's General Store #3031 / Garner,145 US HWY 18 W,GARNER,50438,41
4465,Perfect Value Liquor Mart,5B  LINCOLN AVE,ELDRIDGE,52748,82
4466,HOME TOWN FOOD ON 4,714 S EAST ST,POMEROY,50575,13
4467,THE PUMPER,515 W WATER ST,FAYETTE,52142,33
4468,Kum & Go #438 / Muscatine,1010 PARK AVE,MUSCATINE,52761,70
4469,CIRCLE K #6600 / MUSCATINE,802 CYPRESS ST,MUSCATINE,52761,70
4470,Sperry One Stop Shop LLC,516 HWY 141,COON RAPIDS,50058,14
4471,Kum & Go #211 / WATERLOO,1976 FRANKLIN ST,WATERLOO,50703,7
4472,Kum & Go #212 / WATERLOO,117 E SAN MARNAN DR,WATERLOO,50702,7
4473,Quick Shop Foods / Centerville,1023 SOUTH MAIN,CENTERVILLE,52544,4
4474,Casey's General Store #92 / Panora,"113, NE 3RD ST",PANORA,50216,39
4475,Bucky's Express #34 / Council Bluffs,3501 W BROADWAY ST,COUNCIL BLUFFS,51501,78
4476,Bucky's Express #27 / Council Bluffs,2713 S 24TH ST,COUNCIL BLUFFS,51501,78
4477,Bucky's Express #16 / Council Bluffs,15 NORTH 16TH ST,COUNCIL BLUFFS,51501,78
4478,Bucky's Express #17 / Council Bluffs,1759 MADISON AVE,COUNCIL BLUFFS,51503,78
4480,U S Gas,"3000, SW 9th ST",DES MOINES,50315,77
4481,Circle K #6602 / Clinton,1530 NORTH 2ND ST,CLINTON,52732,23
4482,THE LIQUOR HOUSE,425 GILBERT ST,IOWA CITY,52240,52
4483,Indy 66 West #929 / Indianola,"2001, WEST 2ND AVE",INDIANOLA,50125,91
4484,Sauce,108 E COLLEGE,IOWA CITY,52240,52
4485,JEFF'S MARKET / WEST LIBERTY,200 E 3RD,WEST LIBERTY,52776,70
4486,DYNO'S 51 / SANBORN,101 W 7TH ST,SANBORN,51248,71
4487,Kum & Go #608 / Okoboji,1001 SANBORN AVE,OKOBOJI,51355,30
4488,Casey's General Store #2787 / Cedar,1661 32ND ST NE,CEDAR RAPIDS,52402,57
4489,Casey's General Store #2762 / Cedar,20 MILLER AVE SW,CEDAR RAPIDS,52404,57
4490,Casey's General Store #2763 / Cedar,641 EDGEWOOD RD NW,CEDAR RAPIDS,52405,57
4491,Casey's General Store #2766 / Cedar,380 33RD AVE SW,CEDAR RAPIDS,52404,57
4492,Casey's General Store #2772 / Cedar,3349 MT VERNON RD SE,CEDAR RAPIDS,52403,57
4493,Casey's General Store #2773 / Cedar,3625 EDGEWOOD RD SW,CEDAR RAPIDS,52404,57
4494,Casey's General Store #2850 / Cedar,5655 C ST SW,CEDAR RAPIDS,52404,57
4495,SELECT MART / SIOUX CITY,800 HAMILTON BLVD,SIOUX CITY,51103,97
4496,Casey's General Store #3055 / Grundy,"504, G AVE",GRUNDY CENTER,50638,38
4497,B P ON 1ST,"2824, 1ST AVE NE",CEDAR RAPIDS,52402,57
4498,Casey's General Store #20 / Alden,"1008, Grand",ALDEN,50006,42
4499,Speede Shop / Winthrop,644 220th St,WINTHROP,50682,10
4500,Casey's General Store #1316 / Milfor,510 OKOBOJI AVE,MILFORD,51351,30
4501,Casey's General Store #2788 / North,595 N KANSAS AVE,NORTH LIBERTY,52317,52
4502,Kum & Go #134 / Fairfield,1601 W BURLINGTON AVE,FAIRFIELD,52556,51
4503,Neighborhood Mart / Waterloo,"2100, LAFAYETTE ST",WATERLOO,50703,7
4504,Casey's General Store #38 / Treynor,102 W MAIN ST,TREYNOR,51575,78
4505,JIFFY EXPRESS #921 / INDIANOLA,311 NORTH JEFFERSON,INDIANOLA,50125,91
4506,Casey's General Store #2816 / Johnst,6417 NORTHGLEN DR,JOHNSTON,50131,77
4507,Casey's General Store #2667 / Tiffin,403 STEPHENS ST,TIFFIN,52340,52
4508,Casey's General Store #2902 / Spence,411 W 18TH,SPENCER,51301,21
4509,Casey's General Store #2877 / Spence,805 GRAND AVE S,SPENCER,51301,21
4510,A J'S LIQUOR II,2515 CHAMBERLAIN,AMES,50010,85
4511,Casey's General Store #1007 / Malver,701 MAIN ST,MALVERN,51551,65
4512,Super Quick / SE 30 DM,303 SE 30TH ST,DES MOINES,50317,77
4513,Metro Mart #4 / Waterloo,"2332, FALLS AVE",WATERLOO,50701,7
4514,Casey's General Store #1144 / Polk C,1100 S 3RD ST,POLK CITY,50226,77
4515,Casey's General Store #2813 / Fort D,1230 3RD AVE NW,FORT DODGE,50501,94
4516,Casey's General Store #1588 / Dows,2721 DOWS WILLIAMS RD,DOWS,50071,99
4517,Casey's General Store #1569 / Oaklan,205 BROWN ST,OAKLAND,51560,78
4518,Casey's General Store #2767 / Cedar,3434 1ST AVE NE,CEDAR RAPIDS,52402,57
4519,Casey's General Store #2824 / WDM,6630 MILLS CIVIC PARKWAY,WEST DES MOINES,50266,77
4520,Casey's General Store #2923 / WDM,1850 22ND ST,WEST DES MOINES,50266,77
4521,Casey's General Store #2842 / Huxley,902 N HWY 69,HUXLEY,50124,85
4522,Casey's General Store #1002 / Grand,504 16TH ST N,GRAND JUNCTION,50107,37
4523,Casey's General Store #2523 / Monroe,201 RALPH ST,MONROE,50170,50
4524,Casey's General Store #2563 / Exira,312 W WASHINGTON ST,EXIRA,50076,5
4525,Casey's General Store #1139 / Nora S,14 E CONGRESS,NORA SPRINGS,50458,34
4526,Casey's General Store #2425 / Akron,600 HIGHWAY 12 SOUTH,AKRON,51001,75
4527,Sub Xpress & Gas,4307 W LOCUST ST,DAVENPORT,52804,82
4528,Casey's General Store #30 / Gilmore,105 SE FIRST ST,GILMORE CITY,50541,46
4529,Casey's General Store #1303 / Marsha,111 N 3RD AVE,MARSHALLTOWN,50158,64
4530,Casey's General Store #3262 / Buffal,101 1st ST NE,BUFFALO CENTER,50424,95
4531,Casey's General Store #2566 / Ely,1495 STATE ST,ELY,52227,57
4532,Casey's General Store #2626 / Afton,501 N DOUGLAS ST,AFTON,50830,88
4533,Casey's General Store #2274 / Sioux,720 HWY 71,SIOUX RAPIDS,50585,11
4534,Casey's General Store #1985 / St. An,110 N HWY 218,ST ANSGAR,50472,66
4535,D & B Foods,141 W GILLET ST,PRESTON,52069,49
4536,Casey's General Store #2421 / Dubuqu,4003 PERU RD,DUBUQUE,52001,31
4537,Casey's General Store #2420 / Dubuqu,2699 ROCKDALE,DUBUQUE,52003,31
4538,Casey's General Store #1834 / Leon,401 NW CHURCH ST,LEON,50144,27
4539,K & S Grocery,402 NORTH MAIN ST,CLARKSVILLE,50619,12
4540,Casey's General Store #40 / Scranton,900 LOCUST ST,SCRANTON,51462,37
4541,Casey's General Store #2915 / Bellev,1104 N RIVERVIEW ST,BELLEVUE,52031,49
4542,Casey's General Store #1045 / Delmar,502 MARKET,DELMAR,52037,23
4543,Casey's General Store #2994 / Lauren,520 W MAIN ST,LAURENS,50554,76
4544,Casey's General Store #2924 / Marion,1100 EAGLE VIEW DR,MARION,52302,57
4545,Casey's General Store #1898 / Osceol,114 N MAIN ST,OSCEOLA,50213,20
4546,FILL R UP,14151 WABASH AVE,COUNCIL BLUFFS,51503,78
4547,Casey's General Store #2303 / Glidde,705 IDAHO ST,GLIDDEN,51443,14
4548,Fareway Stores #902 / Hampton,309 CENTRAL AVE WEST,HAMPTON,50441,35
4549,Casey's General Store #2594 / Walker,401 GRANT ST,WALKER,52352,57
4550,Casey's General Store #2913 / Colo,702 US HWY 65,COLO,50056,85
4551,NEW STAR 3 / Waterloo,1459 ANSBOROUGH AVE,WATERLOO,50701,7
4552,Casey's General Store #2845 / Urband,201 SUNSET ST,URBANA,52345,6
4553,Casey's General Store #2493 / Buffal,222 W FRONT ST,BUFFALO,52728,82
4554,Casey's General Store #1892 / Sheffi,702 E GILMAN ST,SHEFFIELD,50475,35
4555,Kum & Go #229 / Sioux City,1821 HAMILTON BLVD,SIOUX CITY,51103,97
4556,Casey's General Store #2614 / Donnel,201 MADISON AVE,DONNELLSON,52625,56
4557,Casey's General Store #2552 / Goldfi,319 E HWY 3,GOLDFIELD,50542,99
4558,Hometown Foods / Traer,420 SECOND ST,TRAER,50675,86
4559,Kum & Go #226 / Sioux City,1373 PIERCE ST,SIOUX CITY,51105,97
4560,Osage Payless Foods,"633, CHASE ST",OSAGE,50461,66
4561,Casey's General Store #2914 / Harlan,"1006, CHATBURN AVE",HARLAN,51537,83
4562,Kroegers Liquor Co LLC,3539 LAFAYETTE RD,EVANSDALE,50707,7
4563,Casey's General Store #2989 / Mechan,206 SHORT ST,MECHANICSVILLE,52306,16
4564,The Molehill,315 MAIN ST,IRETON,51027,84
4565,JEFF'S MARKET / DURANT,408 6th AVE,DURANT,52747,16
4566,KUM & GO #228 / Sioux city,1925 S LAKEPORT ST,SIOUX CITY,51106,97
4567,Kum & Go #508 / Cedar Rapids,30 FOUR OAKS DR SW,CEDAR RAPIDS,52404,57
4568,Shop N Save / NW 2nd Ave / DSM,4685 NW 2nd AVE,DES MOINES,50313,77
4569,Select Mart   Floyd Blvd,4103 FLOYD BLVD,SIOUX CITY,51108,97
4570,Car-Go-Express / Sutherland,202 WEST SOUTHERN ST,SUTHERLAND,51058,71
4571,Cargo Express,"1804, HWY BLVD",SPENCER,51301,21
4572,Casey's General Store #2357 / Alliso,"100, CHERRY ST",ALLISON,50602,12
4573,Grundy Center Family Foods,"1400, G AVE",GRUNDY CENTER,50638,38
4574,Casey's General Store #1330 / Hambur,1211 WASHINGTON ST,HAMBURG,51640,36
4575,ThuLords,413 BROAD ST,WHITTEMORE,50598,55
4576,Casey's General Store #2304 / Slater,200 6th AVE,SLATER,50244,85
4577,THE BOONEDOCKS,228 N HWY 71,ARNOLDS PARK,51331,30
4578,Casey's General Store #2551 / Woodwa,"906, S MAIN ST",WOODWARD,50276,25
4579,Casey's General Store #2592 / Farmin,201 S 4TH ST,FARMINGTON,52626,89
4580,USA Food & Gas / Grand Mound,2293 HWY 30,GRAND MOUND,52751,23
4581,Smokin' Joe's #9 Tobacco and Liquor,304 W. MADISON,WASHINGTON,52353,92
4582,Prime Mart / Cedar Falls,2728 CENTER ST,CEDAR FALLS,50613,7
4583,Pronto / Spirit Lake,"2402, 17th ST",SPIRIT LAKE,51360,30
4584,Kum & Go #5100 / Manson,208 MAIN ST,MANSON,50563,13
4585,J & C Grocery / Dumont,611 MAIN ST,DUMONT,50602,12
4586,Casey's General Store #2561 / Farley,"306, 1st ST SW",FARLEY,52046,31
4588,Kum & Go #545 / Rockwell City,730 HIGH ST,ROCKWELL CITY,50579,13
4589,Sam's Mini Mart / Sioux City,"923, W 7TH ST",SIOUX CITY,51103,97
4590,Dyno's #53 / Sibley,1026 2nd AVE,SIBLEY,51249,72
4591,Casey's General Store #3045 / Cedar,"601, MAIN ST",CEDAR FALLS,50613,7
4592,Casey's General Store #3052 / Clario,"222, CENTRAL AVE",CLARION,50525,99
4593,Dyno's #29 / Emmetsburg,"2401, MAIN",EMMETSBURG,50536,74
4594,The Cue Liquors,1404 MAIN ST,ROCK VALLEY,51247,84
4595,Quik Trip #554 / SW 63rd DM,901 SW 63rd ST,DES MOINES,50312,77
4596,Quik Trip #559 / Fleur Dr DM,4024 FLEUR DR,DES MOINES,50321,77
4597,Quik Trip #534 / E University DM,2945 E UNIVERSITY,DES MOINES,50317,77
4598,Quik Trip #523 / Army Post DM,850 ARMY POST RD,DES MOINES,50315,77
4599,Quik Trip #501 / E Euclid DM,2221 E EUCLID AVE,DES MOINES,50317,77
4600,Quik Trip #500 / Hubbell DM,3700 HUBBELL AVE,DES MOINES,50317,77
4601,Kum & Go #207 / Hubbell DM,4200 E HUBBELL AVE,DES MOINES,50317,77
4602,Kum & Go #4110 / Guthrie DM,2110 GUTHRIE AVE,DES MOINES,50317,77
4603,Cheap Smokes / Beer City,58231 190th ST,PACIFIC JUNCTION,51561,65
4604,Kum & Go #208 / SE 14th DM,3200 SE 14th ST,DES MOINES,50320,77
4605,Pit Stop Liquors / Newton,"1324, 1st AVE E",NEWTON,50208,50
4606,Kum & Go #509 / Marion,1203 BLAIRS FERRY RD,MARION,52302,57
4607,Central Mart / Sioux City,1203 TRI VIEW AVE,SIOUX CITY,51103,97
4608,Casey's General Store #1024 / Gutten,"1131, S HWY 52",GUTTENBERG,52052,22
4609,Casey's General Store #3050 / Counci,"510, 23rd AVE",COUNCIL BLUFFS,51503,78
4610,Kum & Go #579 / Ankeny,165 SW MAGAZINE RD,ANKENY,50023,77
4612,Casey's General Store #2992 / Fonda,101 HWY 7,FONDA,50540,76
4613,ATC Liquor,"214, MYRTLE ST",DAVENPORT,52802,82
4614,Sparky's One Stop / Carroll,402 E 6th ST,CARROLL,51401,14
4615,Urban Liquor,6401 DOUGLAS AVE ste 1,URBANDALE,50322,77
4616,North Side Liquor & Grocery,1303 NORTH FEDERAL AVE,MASON CITY,50401,17
4617,C's Spencer Liquor,719 2ND AVE W,SPENCER,51301,21
4618,Lickety Liquor,2501 HUBBELL AVE,DES MOINES,50317,77
4619,Hawkeye Convenience Stores East,"1581, 1st AVE SE",CEDAR RAPIDS,52403,57
4620,Smokin' Joe's #3 Tobacco and Liquor,1737 AVE H,FORT MADISON,52627,56
4621,Nodaway Valley Market,304 4th ST,FONTANELLE,50846,1
4622,Casey's General Store #23 / Maxwell,"100, MAIN ST",MAXWELL,50161,85
4623,Quik Trip #544 / SE 14th DM,"3941, SE 14th ST",DES MOINES,50320,77
4624,Casey's General Store #1493 / Van Me,"700, DEBRA DR",VAN METER,50261,25
4625,Kwik Shop #568 / Hiawatha,300 E BLAIRS FERRY RD,HIAWATHA,52233,57
4626,Kwik Shop #532 / Council Bluffs,1602 AVENUE G,COUNCIL BLUFFS,51501,78
4627,Kwik Shop #527 / Council Bluffs,"3632, AVENUE G",COUNCIL BLUFFS,51501,78
4628,Casey's General Store #1388 / Sully,"807, 1st ST",SULLY,50251,50
4629,Oelwein Bottle and Can Inc.,137 2nd AVE SE,OELWEIN,50662,33
4630,Kwik Shop #541 / Glenwood,309 N LOCUST ST,GLENWOOD,51534,65
4631,EZ Stop / Davenport,2923 BRADY ST,DAVENPORT,52803,82
4632,Thunder Ridge Ampride,"2425, WHITETAIL DR",CEDAR FALLS,50613,7
4633,Nat Food Mart / 2nd Ave DM,1443 2nd AVE,DES MOINES,50314,77
4634,Kwik Shop #520 / Carter Lake,1202 EAST LOCUST ST,CARTER LAKE,51510,78
4635,Kwik Shop #565 / Cedar Rapids,"4201, CENTER POINT RD NE",CEDAR RAPIDS,52402,57
4636,Kwik Shop #563 / Cedar Rapids,1001 1st AVE SW,CEDAR RAPIDS,52405,57
4637,Kwik Shop #561 / Cedar Rapids,2904 CENTER POINT RD NE,CEDAR RAPIDS,52402,57
4638,Kwik Shop #560 / Cedar Rapids,3301 J ST,CEDAR RAPIDS,52404,57
4639,GD Xpress / Davenport,4607 N PINE ST,DAVENPORT,52804,82
4640,Liquor & Tobacco Outlet / Fort Dodge,902 1st AVE N,FORT DODGE,50501,94
4641,Mart Stop #1 / Davenport,"3527, SPRING ST",DAVENPORT,52807,82
4642,Kum & Go #573 / SE 14th DM,5830 SE 14th ST,DES MOINES,50315,77
4643,Liquor and Tobacco Outlet / Univ Ave,2844 UNIVERSITY AVE,WATERLOO,50701,7
4644,Cubby's Red Oak,"2405, N BROADWAY ST",RED OAK,51566,69
4645,Kwik Shop #588 / Davenport,"1136, E LOCUST ST",DAVENPORT,52803,82
4646,Kwik Shop #589 / Eldridge,"1, GROVE RD",ELDRIDGE,52748,82
4647,Pronto Market / Fairbank,104 4th ST,FAIRBANK,50629,10
4648,B and B EAST / Waterloo,1615 BISHOP AVE,WATERLOO,50707,7
4649,Prime Mart / Broadway Waterloo,508 BROADWAY ST,WATERLOO,50703,7
4650,Metro Liquor and Tobacco,3418 W BROADWAY,COUNCIL BLUFFS,51501,78
4651,Loofts on 9 Liquor Here or Liquor Th,"202, W 4th AVE",SWEA CITY,50590,55
4652,Casey's General Store #2300 / Jewell,"301, MAIN ST",JEWELL,50130,40
4653,Brady Mart Food & Liquor,"3107, BRADY ST",DAVENPORT,52803,82
4654,Casey's General Store #1617 / Jeffer,"508, N ELM",JEFFERSON,50129,37
4655,KUM & GO #510 / STUART,629 S DIVISION ST,STUART,50250,1
4656,Casey's General Store #2237 / Prairi,1002 W 2ND ST,PRAIRIE CITY,50228,50
4657,Casey's General Store #2301 / Ames,17005 HWY 69,AMES,50010,85
4658,Casey's General Store #2526 / Wellsb,308 N WASHINGTON,WELLSBURG,50680,38
4659,Casey's General Store #3027 / Iowa F,904 WASHINGTON AVE,IOWA FALLS,50126,42
4660,Casey's General Store #2802 / Conrad,409 E CENTER,CONRAD,50621,38
4661,Hill Brothers Jiffy Mart / Cedar Rap,"1904, MT VERNON RD SE",CEDAR RAPIDS,52403,57
4662,Quik Trip #531 / Grimes,"1900, SE 37th ST",GRIMES,50111,77
4663,Guppy's On The Go / Cedar Rapids,"1532, ELLIS BLVD NW",CEDAR RAPIDS,52405,57
4664,Casey's General Store #3077 / Peosta,236 PEOSTA ST,PEOSTA,52068,31
4665,Casey's General Store #24 / Boone,1127 STORY,BOONE,50036,8
4666,Casey's General Store #2896 / Ankeny,2601 SE CREEKVIEW DR,ANKENY,50021,77
4667,Super Stop II / Altoona,2635 ADVENTURELAND DR,ALTOONA,50009,77
4668,Kum & Go #56 / Bevington,101 E IA HIGHWAY 92,BEVINGTON,50033,61
4669,Clear Lake Payless Foods,20 SOUTH 4TH ST,CLEAR LAKE,50428,17
4670,Vom Fass / Des Moines,"833, 42ND ST",DES MOINES,50312,77
4671,Guppy's On The Go / Tripoli,"600, 7TH AVE SW",TRIPOLI,50676,9
4672,New Star Mart #1 / Waterloo,9 N ELK RUN RD,WATERLOO,50703,7
4673,The Pit Stop / River City Liquor,402 S HWY 52,GUTTENBERG,52052,22
4674,Sonny's Super Market / West Point,327 5TH ST,WEST POINT,52656,56
4675,Kum & Go #227 / Ames,2108 ISSAC NEWTON DR,AMES,50010,85
4676,Kum & Go #113 / Ames,2801 E 13TH ST,AMES,50010,85
4677,Sam's Mini Mart / Sioux City,711 GORDON DR,SIOUX CITY,51101,97
4678,Costco Wholesale #1111 / Coralville,2900 HEARTLAND DR,CORALVILLE,52241,52
4679,Fareway Stores #124 / Adel,804 NILE KINNICK DR,ADEL,50003,25
4680,Walgreens #12393 / Cedar Rapids,5750 C AVE NE,CEDAR RAPIDS,52402,57
4681,Afal Food & Liquor / Des Moines,4121 SE 14TH ST,DES MOINES,50320,77
4682,Spirits & Such,100 E ELM ST,WEST UNION,52175,33
4683,Pleasantville Alcohol & Tobacco,906 N HIGHWAY 5,PLEASANTVILLE,50225,63
4684,New Star 3 / Waterloo,1459 ANSBOROUGH AVE,WATERLOO,50701,7
4685,Indy 66 #928 / Indianola,1201 N JEFFERSON,INDIANOLA,50125,91
4686,Kwik Stop Food Mart,2360 Central,Dubuque,52001,31
4687,Sunny's Mart / Clinton,630 N 3rd ST,CLINTON,52732,23
4688,Kum & Go #517 / Cedar Rapids,3132 1st AVE NE,CEDAR RAPIDS,52402,57
4689,Walgreens #10770 / Carroll,105 E 6th ST,CARROLL,51401,14
4690,Walgreens #11759 / Fort Madison,2639 AVENUE L,FORT MADISON,52627,56
4691,Super Stop and Shop / Baldwin,5358 HWY 64,BALDWIN,52207,49
4692,Railroad Street Tobacco and Spirits,701 RAILROAD ST,IOWA FALLS,50126,42
4693,Walgreens #05886 / Keokuk,1215 MAIN ST,KEOKUK,52632,56
4694,Hawkeye Convenience Stores / 16th St,250 16th AVE SW,CEDAR RAPIDS,52404,57
4695,Rina Mart LLC / Davenport,"3815, WEST KIMBERLY RD",DAVENPORT,52806,82
4696,Walgreens #09791 / Altoona,101 8th ST SE,ALTOONA,50009,77
4697,Quik Trip #517 / West Des Moines,1451 22nd ST,WEST DES MOINES,50266,77
4698,Southside Liquor & Tobacco / Iowa Ci,601 HOLLYWOOD BLVD,IOWA CITY,52240,52
4699,Quality Quick Stop,201 W BURLINGTON AVE,FAIRFIELD,52556,51
4700,Walgreens #06553 / Bettendorf,830 MIDDLE RD,BETTENDORF,52722,82
4701,J & C Grocery / Allison,"306, N MAIN",ALLISON,50602,12
4702,Walgreens #11193 / Boone,310 STORY ST,BOONE,50036,8
4703,Walgreens #05361 / Fort Dodge,2503 5th AVE S,FORT DODGE,50501,94
4704,Walgreens #00910 / Sioux City,100 PIERCE ST,SIOUX CITY,51101,97
4705,The Filling Station / Council Bluffs,1531 2nd AVE,COUNCIL BLUFFS,51501,78
4706,Walgreens #05977 / Coralville,102 SECOND ST,CORALVILLE,52241,52
4707,Walgreens #05144 / Clinton,1905 N  2ND ST,CLINTON,52732,23
4708,Walgreens #05119 / Clinton,806 S  4TH ST,CLINTON,52732,23
4709,No Frills Supermarkets #803 / Glenwo,423 SHARP ST,GLENWOOD,51534,65
4710,Walgreens #12108 / Ames,2719 GRAND AVE,AMES,50010,85
4711,Walgreens #09708 / Dubuque,55 JOHN F KENNEDY RD,DUBUQUE,52002,31
4712,Walgreens #06154 / Dubuque,2260 JOHN F KENNEDY RD,DUBUQUE,52002,31
4713,Walgreens #11942 / Dubuque,345 E 20TH ST,DUBUQUE,52001,31
4714,Walgreens #10985 / Coralville,2751 HEARTLAND DR,CORALVILLE,52241,52
4715,Walgreens #05943 / Indianola,1000 N JEFFERSON ST,INDIANOLA,50125,91
4716,Walgreens #06678 / West Des Moines,1999 GRAND AVE,WEST DES MOINES,50265,77
4717,Walgreens #11153 / Spencer,800 GRAND AVE,SPENCER,51301,21
4718,Walgreens #05512 / Bettendorf,3425 MIDDLE RD,BETTENDORF,52722,82
4719,Walgreens #06623 / West Des Moines,1660 22ND ST,WEST DES MOINES,50266,77
4720,Walgreens #06677 / West Des Moines,4900 MILLS CIVIC PKWY,WEST DES MOINES,50265,77
4721,Chariton BP,"107, EAST GRACE",CHARITON,50049,59
4722,Walgreens #05044 / Burlington,3245 AGENCY ST,BURLINGTON,52601,29
4723,Walgreens #09476 / Burlington,201 S CENTRAL AVE,BURLINGTON,56201,29
4724,Walgreens #10557 / Cedar Falls,2509 WHITETAIL DR,CEDAR FALLS,50613,7
4725,Walgreens #05942 / Newton,1204 1ST AVE EAST,NEWTON,50208,50
4726,Casey's General Store #1548 / Ankeny,"2905, W  1ST ST",ANKENY,50023,77
4727,Walgreens #07454 / Ankeny,901 N ANKENY BLVD,ANKENY,50021,77
4728,Walgreens #07996 / Ankeny,2702 SE DELAWARE AVE,ANKENY,50021,77
4729,Walgreens #05077 / Iowa City,2214 MUSCATINE AVE,IOWA CITY,52240,52
4730,No Frills Supermarkets #790 / Deniso,501 HIGHWAY 39 NORTH,DENISON,51442,24
4731,Walgreens #05944 / Johnston,6200 MERLE HAY RD,JOHNSTON,50131,77
4732,Walgreens #05060 / Clive,12753 UNIVERSITY AVE,CLIVE,50325,77
4733,Walgreens #07967 / Clive,15601 HICKMAN RD,CLIVE,50325,77
4734,Walgreens #03773 / Urbandale,4600 86th ST,URBANDALE,50322,77
4735,Walgreens #04973 / Urbandale,7000 DOUGLAS AVE,URBANDALE,50322,77
4736,Walgreens #01301 / Ottumwa,327 W 4th ST,OTTUMWA,52501,90
4737,Walgreens #03876 / Marion,1225 7TH AVE,MARION,52302,57
4738,Walgreens #11330 / Storm Lake,800 LAKE AVE,STORM LAKE,50588,11
4739,Casey's General Store #2284 / Counci,"1030, VETERAN MEMORIAL HWY",COUNCIL BLUFFS,51501,78
4740,Walgreens #05306 / Council Bluffs,301 W BENNETT AVE,COUNCIL BLUFFS,51503,78
4741,Walgreens #04405 / Council Bluffs,2508 W BROADWAY,COUNCIL BLUFFS,51501,78
4742,Walgreens #03700 / Council Bluffs,535 E BROADWAY,COUNCIL BLUFFS,51503,78
4743,No Frills Supermarkets #786 / Counci,"1817, W BROADWAY",COUNCIL BLUFFS,51501,78
4744,No Frills Supermarkets #791 / Counci,1801 VALLEY VIEW DR,COUNCIL BLUFFS,51503,78
4745,Walgreens #03875 / Cedar Rapids,2821 1ST AVE SE,CEDAR RAPIDS,52402,57
4746,Walgreens #05042 / Cedar Rapids,3325 16TH AVE SW,CEDAR RAPIDS,52404,57
4747,Walgreens #05885 / Muscatine,1703 PARK AVE,MUSCATINE,52761,70
4748,Walgreens #11709 / Davenport,1805 BRADY ST,DAVENPORT,52803,82
4749,Walgreens #06186 / Davenport,4011 E 53RD ST,DAVENPORT,52807,82
4750,Walgreens #05239 / Davenport,1660 W LOCUST ST,DAVENPORT,52804,82
4751,Walgreens #04041 / Davenport,1525 E KIMBERLY,DAVENPORT,52807,82
4752,Walgreens #03595 / Davenport,1720 W KIMBERLY RD,DAVENPORT,52806,82
4753,Gasland / Burlington,1003 SUMMER ST,BURLINGTON,52655,29
4754,Casey's General Store #2521 / Adair,110 S 5TH ST,ADAIR,50002,1
4755,Walgreens #12148 / Waverly,320 W BREMER AVE,WAVERLY,50677,9
4756,Walgreens #05941 / Mason City,1251 4th ST SW,MASON CITY,50401,17
4757,Walgreens #03196 / Marshalltown,5 E ANSON,MARSHALLTOWN,50158,64
4758,EZ Mart / Bondurant,1111 SE LINCOLN ST,BONDURANT,50035,77
4759,Midtown / Storm Lake,1100 EAST 5TH ST,STORM LAKE,50588,11
4760,Walgreens #10855 / Waterloo,1850 LOGAN AVE,WATERLOO,50703,7
4761,Walgreens #07455 / Waterloo,111 W RIDGEWAY AVE,WATERLOO,50701,7
4762,Walgreens #03590 / Waterloo,3910 UNIVERSITY AVE,WATERLOO,50701,7
4763,Huber's Store Inc.,101 MAIN ST,FORT ATKINSON,52144,96
4764,Parktown BP / Cedar Rapids,4141 CENTER POINT RD NE,CEDAR RAPIDS,52402,57
4765,New Star / Fort Dodge,1923 5TH AVE S,FORT DODGE,50501,94
4766,Kwik Stop C-Stores / Dubuque,2335 UNIVERSITY AVE,DUBUQUE,52001,31
4767,Keywest Conoco / Dubuque,2150 TWIN VALLEY DR,DUBUQUE,52003,31
4768,Casey's General Store #3075 / Ankeny,"6981, NE 14TH ST",ANKENY,50023,77
4769,Kum & Go #777 / Urbandale,8228 DOUGLAS AVE,URBANDALE,50322,77
4770,Elma Locker and Grocery,100 GRANT ST,ELMA,50628,45
4771,Casey's General Store #3080 / Hudson,"354, E ELDORA RD",HUDSON,50643,7
4772,Cenex Gas Station,"502, E AVE NW",CEDAR RAPIDS,52402,57
4773,Kum & Go #97 / West Des Moines,196 S 50TH ST,WEST DES MOINES,50265,77
4774,"Fast Mart 2, LLC",2704 VINE ST,WEST DES MOINES,50265,77
4775,Casey's General Store #3034 / Esther,"1615, CENTRAL AVE",ESTHERVILLE,51334,32
4776,Casey's General Store #37 / Dakota C,"502, MAIN",DAKOTA CITY,50529,46
4777,The Market on 30 / Carroll,420 WEST HWY 30,CARROLL,51401,14
4778,Casey's General Store #1365 / Paulli,"315, E GRAND AVE",PAULLINA,51046,71
4779,Casey's General Store #3030 / Storm,825 FUNDT DR,STORM LAKE,50588,11
4780,Casey's General Store #25 / Mount Ay,"300, W SOUTH ST",MOUNT AYR,50854,80
4781,Casey's General Store #3043 / Britt,"576, N MAIN AVE",BRITT,50423,41
4782,Casey's General Store #3079 / Early,"2245, US HWY 71",EARLY,50535,81
4783,Casey's General Store #2529 / Lamoni,406 E MAIN ST,LAMONI,50140,27
4784,Casey's General Store #1684 / Emmets,"2406, MAIN ST",EMMETSBURG,50536,74
4785,Hawkeye Convenience Store Wiley Blvd,2330 WILEY BLVD SW,CEDAR RAPIDS,52404,57
4786,Casey's General Store #2835 / Avoca,1019 N CHESTNUT ST,AVOCA,51521,78
4787,Casey's General Store #1706 / Winter,1021 N 1st ST,WINTERSET,50273,61
4788,Guppy's On The Go Swisher,2722 NE 120TH ST,SWISHER,52338,52
4789,Walgreens #12580 / Cedar Rapids,324 EDGEWOOD RD NW,CEDAR RAPIDS,52405,57
4790,Katy Did's General Store,419 MERRILL ST,BUSSEY,50044,63
4791,Mediapolis Fast Break,"109, WAPELLO ST",MEDIAPOLIS,52405,29
4792,Walgreens #05470 / Sioux City,4650 MORNINGSIDE AVE,SIOUX CITY,51106,97
4793,Casey's General Store #2899 / De Sot,1100 GREENE ST,DE SOTO,50069,25
4794,Fort Madison Fast Break,5002 AVENUE O,FORT MADISON,52627,56
4795,Smokin' Joe's #17 Tobacco and Liquor,110 S ROOSEVELT HWY 61,BURLINGTON,52601,29
4796,Walgreens #00359 / Des Moines,2545 E EUCLID AVE,DES MOINES,50317,77
4797,Walgreens #04714 / Des Moines,4555 FLEUR DR,DES MOINES,50321,77
4798,Walgreens #05362 / Des Moines,1330 E UNIVERSITY AVE,DES MOINES,50316,77
4799,Walgreens #05721 / Des Moines,3140 SE 14TH ST,DES MOINES,50320,77
4800,Walgreens #05777 / Des Moines,2930 E UNIVERSITY AVE,DES MOINES,50317,77
4801,Walgreens #07968 / Des Moines,6200 SE 14TH ST,DES MOINES,50320,77
4802,Walgreens #05852 / Des Moines,3030 UNIVERSITY AVE,DES MOINES,50311,77
4803,Walgreens #07452 / Des Moines,4415 DOUGLAS AVE,DES MOINES,50310,77
4804,Walgreens #07453 / Des Moines,104 E EUCLID AVE,DES MOINES,50313,77
4805,Walgreens #07833 / Des Moines,3501 INGERSOLL AVE,DES MOINES,50312,77
4806,Liquor Tobacco & Grocery / Fort Dodg,902 1ST AVE N,FORT DODGE,50501,94
4807,Giri's Liquor Store / West Liberty,"1006, N COLUMBUS ST",WEST LIBERTY,52776,70
4808,Williamsburg Foods,"103, W WALNUT ST",WILLIAMSBURG,52361,48
4809,CB Quick Stop / Council Bluffs,"3500, AVE A",COUNCIL BLUFFS,51501,78
4810,Abby Lea's,"123, MADISON ST",NASHUA,50658,19
4811,Kum & Go #518 / Ankeny,3603 NE OTTERVIEW CIRCLE,ANKENY,50021,77
4812,Casey's General Store #1327 / Lovili,"1807, HWY 5 S",LOVILIA,50150,68
4813,Liquor Beer & Tobacco Outlet / Charl,1908 CLARK ST,CHARLES CITY,50616,34
4814,USA Food and Gas / Grand Mound,"2293, HWY 30",GRAND MOUND,52751,23
4815,"Byron Supermarket, Inc.",306 BYRON AVE,WATERLOO,50702,7
4816,ROCSTOP,1310 W SHERIDAN AVE,SHENANDOAH,51601,73
4817,Casey's General Store #3232 / Shenan,1303 W SHERIDAN AVE,SHENANDOAH,51601,73
4818,Casey's General Store #3217 / Knoxvi,"1201, E MAIN ST",KNOXVILLE,50138,63
4819,Decorah Mart,"303, COLLEGE DR",DECORAH,52101,96
4820,Super Stop 2 / Altoona,2635 ADVENTURELAND DR,ALTOONA,50009,77
4821,Lil' Chubs Corner Stop,712 S OAK ST,INWOOD,51240,60
4822,Casey's General Store #3215 / Oskalo,901 S MARKET ST,OSKALOOSA,52577,62
4823,Casey's General Store #3214 / Oskalo,413 A AVE W,OSKALOOSA,52577,62
4824,Casey's General Store #3223 / Cresto,903 N SUMNER AVE,CRESTON,50801,88
4825,Casey's General Store #3224 / Cresto,301 W TAYLOR ST,CRESTON,50801,88
4826,Casey's General Store #3212 / Osceol,400 S MAIN ST,OSCEOLA,50213,20
4827,Casey's General Store #3226 / Albia,204 S MAIN ST,ALBIA,52531,68
4828,Sauce,108 E COLLEGE ST,IOWA CITY,52240,52
4829,Casey's General Store #3228 / Marsha,916 E MAIN ST,MARSHALLTOWN,50158,64
4830,Central City 2,1501 MICHIGAN AVE,DES MOINES,50314,77
4831,JCL Store,"7600, UNIVERSITY AVE",CLIVE,50325,77
4832,L & M Gas & Grocery / Boone,"320, W MAMIE EISENHOWER AVE",BOONE,50036,8
4833,Casey's General Store #2491 / Clarin,1107 S 16 ST,CLARINDA,51632,73
4834,Crazy Mary's Licker,1804 135th AVE,MURRAY,50174,20
4835,Muscatine Fast Break,2603 SECOND AVE,MUSCATINE,52761,70
4836,Point Liquor & Tobacco,4107 CENTER POINT RD NE,CEDAR RAPIDS,52402,57
4837,Kum & Go #52 / Iowa City,25 W BURLINGTON ST,IOWA CITY,52240,52
4838,Kum & Go #51 / Iowa City,323 E BURLINGTON ST,IOWA CITY,52240,52
4839,Casey's General Store #2448 / Ogden,"102, W VETERANS DR",OGDEN,50212,8
4840,DS Services LLC,87 8th ST N,Northwood,50459,98
4841,Independence Ave Liquor & Food / Wat,1761 INDEPENDENCE AVE,WATERLOO,50707,7
4843,Cozy Mart,2920 W LOCUST ST,DAVENPORT,52804,82
4844,Stewart Road Fast Break,"2418, STEWART RD",MUSCATINE,52761,70
4845,Iowa City Fast Break,"2580, NAPLES AVE",IOWA CITY,52240,52
4846,3rd St Convenience,"216, 3RD ST SE",CEDAR RAPIDS,52401,57
4847,Casey's General Store #2697 / Onawa,"706, 10TH ST",ONAWA,51040,67
4848,Slagle Foods LeClaire,1301 EAGLE RIDGE RD,LECLAIRE,52753,82
4849,Kum & Go #246 / Winterset,111 E JEFFERSON ST,WINTERSET,50273,61
4850,C Fresh Market,"801, UNIVERSITY AVE",DES MOINES,50314,77
4851,Big 10 Mart,4141 CENTERPOINT RD NE,CEDAR RAPIDS,52402,57
4852,Southside Liquor & Tobacco Outlet /,3200 16th AVE SW,CEDAR RAPIDS,52404,57
4853,Kum & Go #520 / Cedar Rapids,2604 16th AVE,CEDAR RAPIDS,52404,57
4854,Kum & Go #62 / Johnston,6130 NW 86TH ST,JOHNSTON,50131,77
4855,Casey's General Store #3029 / Armstr,"307, S 4TH AVE",ARMSTRONG,50514,32
4856,Casey's General Store #3200 / Strawb,"308, W MISSION",STRAWBERRY POINT,52076,22
4857,Brothers Market / Lisbon,930 COMMERCIAL ST,LISBON,52253,57
4858,Westland Fast Break,1108 W AGENCY RD,WEST BURLINGTON,52655,29
4859,Hwy 34 Truckstop,4305 W MT PLEASANT,WEST BURLINGTON,52655,29
4860,Circle K #6604 / Burlington,421 N MAIN ST,BURLINGTON,52601,29
4861,Jims Foods,812 6TH ST SW,CEDAR RAPIDS,52404,57
4862,The Station / Cedar Rapids,3645 STONE CREEK CIRCLE SW,CEDAR RAPIDS,52404,57
4864,Pronto Market / Kingsley,101 MAIN ST,KINGSLEY,51028,75
4865,CLINTON LIQUOR & CONVENIENCE STORE,1641 S BLUFF BLVD,CLINTON,52733,23
4866,Rolfe Area Market,412 GARFIELD ST,ROLFE,50581,76
4867,Tobacco Hut #18 / Council Bluffs,3134 MANAWA CENTRE DR,COUNCIL BLUFFS,51501,78
4868,Speedy Gas N Shop,"430, S 35TH ST",COUNCIL BLUFFS,51501,78
4869,Kum & Go #59 / Waukee,400 PRAIRIE BLUFF DR,WAUKEE,50263,25
4870,Lindsanator's,415 S HWY 52,GUTTENBERG,52052,22
4871,Tobacco 4 Less / Bettendorf,1032 STATE ST,BETTENDORF,52722,82
4872,Donahue's One Stop,125 W JEFFERSON AVE,HARPERS FERRY,52146,3
4873,Casey's General Store #2644 / Earlha,975 N CHESTNUT AVE,EARLHAM,50072,61
4874,Casey's General Store #2559 / Grange,"1802, SYCAMORE ST",GRANGER,50109,25
4875,Z's Quickbreak,"201, E WASHINGTON ST",MOUNT PLEASANT,52641,44
4876,Bani's,"307, MAIN ST",CEDAR FALLS,50613,7
4877,Quick Mart / Hiawatha,"655, ROBBINS RD",HIAWATHA,52233,57
4878,World Liquor & Tobacco,1775 NW 86TH ST,CLIVE,50325,77
4879,Shortee's Pit Stop,"215, S RERICK AVE",PRIMGHAR,51245,71
4880,Sam's Mini Mart / Morningside Ave Si,4218 MORNINGSIDE AVE,SIOUX CITY,51106,97
4881,Casey's General Store #1567 / Anita,"912, MAIN ST",ANITA,50020,15
4882,Sperry One Stop Shop LLC,516 HWY 141,COON RAPIDS,50058,14
4883,Casey's General Store #3026 / St Cha,"209, E MAIN ST",ST CHARLES,50240,61
4884,K & L Foods,"118, S MAIN ST",SIGOURNEY,52591,54
4885,Tobacco Hut #11 / Sioux City,"4523, MORNINGSIDE AVE",SIOUX CITY,51106,97
4886,SNK Gas & Food LLC,"18820, BELLEVUE CASCADE RD",ZWINGLE,52079,49
4887,Yr Dollar Stop,1500 1st AVE NE,CEDAR RAPIDS,52402,57
4888,Kum & Go #66 / West Des Moines,5308 UNIVERSITY AVE,WEST DES MOINES,50266,77
4889,Circle S Bluff Stop,302 1ST ST,SERGEANT BLUFF,51054,97
4890,Fast Trip / Des Moines,1516 SE  1st ST,DES MOINES,50315,77
4891,Casey's General Store #3210 / Urband,4400 128TH ST,URBANDALE,50323,77
4892,Schottsy's Liquor,109 5th ST,SIBLEY,51249,72
4893,Sara Mini Mart,1026 W RIVER DR,DAVENPORT,52802,82
4894,Casey's General Store #3098 / WDM,105 GRAND AVE,WEST DES MOINES,50265,77
4895,Discount Tobacco and More / Davenpor,828 W RIVER DR,DAVENPORT,52802,82
4896,Big Discount Liquor,5427 CENTER POINT RD NE,CEDAR RAPIDS,52402,57
4897,Barrys Mini Mart,"403, CHESTNUT ST",HARPERS FERRY,52146,3
4898,Gasland #102 / Burlington,1703 MT PLEASANT ST,BURLINGTON,52601,29
4899,Burlington Shell,"130, S ROOSEVELT AVE",BURLINGTON,52601,29
4900,Graettinger Market,"124, W ROBINS ST",GRAETTINGER,51342,74
4901,Kwik Stop 4 / Waterloo,515 BROADWAY ST,WATERLOO,50703,7
4902,Fareway Stores #137 / Polk City,1101 S 5TH ST,POLK CITY,50226,77
4904,Broadway Liquor,821 BROADWAY ST,WATERLOO,50703,7
4905,Larchwood Quick Stop,832 BROADWAY ST,LARCHWOOD,51241,60
4906,South Side Grocery,"319, COURT ST",ROCKWELL CITY,50579,13
4907,Smoke.N.Pipe,3221 FIRST AVE SE,CEDAR RAPIDS,52404,57
4908,Prime Mart,2323 MAIN ST,CEDAR FALLS,50613,7
4909,Zapf's Pronto Market,107 1st ST SW,ELKADER,52043,22
4910,Pump N Pak Rock Valley,"1004, MAIN ST",ROCK VALLEY,51247,84
4911,Prime Mart #3 / Waterloo,1008 LAPORTE RD,WATERLOO,50702,7
4912,Casey's General Store #1061 / Prince,"500, HWY 67 N",PRINCETON,52768,82
4914,Casey's General Store #2531 / Eldrid,"840, E LE CLAIRE RD",ELDRIDGE,52748,82
4915,Prime Mart / Center St,2728 CENTER ST,CEDAR FALLS,50613,7
4916,Casey's General Store #2429 / Betten,"3902, STATE ST",BETTENDORF,52722,82
4917,Perez Grocery,505 E VINE AVE,OTTUMWA,52501,90
4918,Kum & Go #115 / Perry,1115 IA HWY 141,PERRY,50220,25
4919,Northwest Petroleum,6087 HWY 110 S,STORM LAKE,50588,11
4920,Kum & Go #4084 / Altoona,101 8TH ST SW,ALTOONA,50009,77
4921,Kum & Go #129 / Johnston,5225 NW 86TH ST,JOHNSTON,50131,77
4922,Market Express,5340 16TH AVE SW,CEDAR RAPIDS,52404,57
4923,Vinos y Licores el Aguaje,101 W MAIN ST,MARSHALLTOWN,50158,64
4924,Casey's General Store #2270 / Aureli,"100, PEARL ST",AURELIA,51005,18
4925,Abby Lea's,"2757, CHARLES CITY RD",NASHUA,50658,19
4926,Kum & Go #574 / Urbandale,8600 MEREDITH DR,URBANDALE,50266,77
4927,GS Super Stop,4923 MERLE HAY RD,DES MOINES,50322,77
4928,Kum & Go #576 / West Des Moines,3501 EP TRUE PKWY,WEST DES MOINES,50265,77
4929,Shop n Save / 6th Ave,1829 6TH AVE,DES MOINES,50314,77
4930,Casey's General Store #1680 / Adel,"816, GREENE ST",ADEL,50003,25
4931,Casey's General Store #3251 / Boone,1303 SE MARSHALL ST,BOONE,50036,8
4932,Hudson Gas Mart,230 WATERLOO RD,HUDSON,50643,7
4933,B and B West,3105 HUDSON RD,CEDAR FALLS,50613,7
4934,River Mart,2107 AGENCY ST,BURLINGTON,52601,29
4935,Casey's General Store #2811 / Spring,"605, 6th ST S",SPRINGVILLE,52336,57
4936,Ali's Liquor,1117 E 4TH ST,WATERLOO,50703,7
4937,Pickle Barrel Market,2 N  EYBERG ST,TREYNOR,51575,78
4938,ROCSTOP,1310 W SHERIDAN AVE,SHENANDOAH,51601,73
4939,Pronto Market,201 S MAIN ST,HAZLETON,50641,10
4940,Urban Liquor,6401 DOUGLAS AVE   STE 1,URBANDALE,50322,77
4941,Cambridge Country Store,301 WATER ST,CAMBRIDGE,50046,77
4942,Kum & Go #170 / Urbandale,6990 DOUGLAS AVE,URBANDALE,50322,77
4943,East Village Pantry,"333, E GRAND AVE",DES MOINES,50309,77
4944,Eldon Kwik Shop,"205, 4th ST",ELDON,52554,90
4945,Jiffy Express / Martensdale,"290, HWY 28",MARTENSDALE,50160,91
4946,Osage Liquors,"508, MAIN ST",OSAGE,50461,66
4947,Byron Supermarket,306 BYRON AVE,WATERLOO,50702,7
4948,The Music Station,1420 W FIRST ST,CEDAR FALLS,50647,7
4949,Wheatland Day Break,102 W HWY 30,WHEATLAND,52777,23
4950,River Drive Smoke Shop,"828, W RIVER DR",DAVENPORT,52802,82
4951,Kum & Go #514 / Cedar Rapids,1420 MT VERNON RD,CEDAR RAPIDS,52403,57
4952,New Star Mart (Amoco),4141 CENTER POINT RD NE,CEDAR RAPIDS,52402,57
4953,Sub Express & Gas,4307 W LOCUST ST,DAVENPORT,52804,82
4954,Tri Stop,302 HWY 136,LOST NATION,52254,23
4955,Casey's General Store #3244 / Urband,"3750, 111TH ST",URBANDALE,50322,77
4956,Cenex Ampride,504 1st ST SW,MASON CITY,50401,17
4957,The Cooler,"4920, JOHNSON AVE NW",CEDAR RAPIDS,52405,57
4958,Kimmes Wall Lake Country Store,129 CENTER ST,WALL LAKE,51466,81
4959,Five Corners Liquor & Wine,809 E 18TH ST,CEDAR FALLS,50613,7
4960,Bani's,2128 COLLEGE ST,CEDAR FALLS,50613,7
4961,AJ's Liquor III,2401 A CHAMBERLAIN ST,AMES,50010,85
4962,Kwik Stop / Cedar Cross,1200 CEDAR CROSS RD,DUBUQUE,52003,31
4963,Hilltop Grocery,1312 HARRISON ST,DAVENPORT,52803,82
4964,Jeff's Market / Durant,"408, 6TH AVE",DURANT,52747,16
4965,Jeff's Market / Wilton,101 E 4TH ST,WILTON,52778,70
4966,Pronto,6087 HWY 110 S,STORM LAKE,50588,11
4967,Midtown,1100 E 5TH ST,STORM LAKE,50588,11
4968,Jeff's Market / Blue Grass,"102, W MAYNE ST",BLUE GRASS,52726,82
4969,Casey's General Store #3042 / Brookl,"106, W 2ND ST",BROOKLYN,52211,79
4970,Lake Liquors Wine and Spirits,910 N 8TH ST W,CLEAR LAKE,50428,17
4971,Jeff's Market / West Liberty,"200, E 3RD ST",WEST LIBERTY,52776,70
4972,Fareway Stores #138 / Pleasant Hill,"5500, E UNIVERSITY AVE",PLEASANT HILL,50327,77
4973,Quillins Quality Foods Monona,808 S MAIN ST,MONONA,52159,22
4974,Quillins Quality Foods West Union,"303, HWY 150 N",WEST UNION,52175,33
4975,Super Stop  SE 14th,"727, SE  14TH ST",DES MOINES,50317,77
4976,Walgreens #15647 / Sioux City,1900 HAMILTON BLVD,SIOUX CITY,51104,97
4977,Central Mart / Sioux City,1203 TRI VIEW AVE,SIOUX CITY,51103,97
4978,Bacon Creek Country Store,2520 GORDON DR,SIOUX CITY,51106,97
4979,Prime Mart / Waterloo,3535 MARIGOLD DR,WATERLOO,50702,7
4980,Sam Liquor,1500 1st AVE NE,CEDAR RAPIDS,52402,57
4981,Pronto BP,7305 LAPORTE RD,WASHBURN,50702,7
4982,Sinclair Food Mart,206 N MAIN ST,TRAER,50675,86
4983,Kimmes Country Store Alta 05,101 E  HWY 7,ALTA,51002,11
4984,River Mart,"14562, WASHINGTON RD",WEST BURLINGTON,52655,29
4985,Fast Ave One Stop,2111 PARK AVE,MUSCATINE,52761,70
4986,Casey's General Store #2519 / Merril,101 FIRST ST,MERRILL,51038,75
4987,218 Fuel Express & Chubby's Liquor,68 MONROE ST,FLOYD,50435,34
4988,Almost Always Open,419 LINCOLN WAY,AMES,50010,85
4989,Happy's Wine & Spirits,5925 UNIVERSITY AVE,CEDAR FALLS,50613,7
4990,Casey's General Store #3322 / Iowa C,1904 BROADWAY ST,IOWA CITY,52240,52
4991,Main Lil' Market,524 MAIN ST,GRISWOLD,51535,15
4992,Fasttrak,24687 HWY 13 N,ELKADER,52043,22
4993,Old 34 Gas & Grill,305 US 34 BUSINESS,DANVILLE,52623,29
4994,Site Food Mart,"1301, MAIN ST",KEOKUK,52632,56
4995,City Foods,200 BROADWAY ST,WATERLOO,50703,7
4996,Durant Street C-Store,618 DURANT ST,HARLAN,51537,83
4997,Kwik Stop 16th St #300,1215 E 16TH ST,DUBUQUE,52001,31
4998,Downtown Pantry,"218, 6th AVE #101",DES MOINES,50309,77
4999,Lake City Food Center,820 E MAIN ST,LAKE CITY,51449,13
5000,Casey's General Store #2680 / Clarks,213 S MAIN ST,CLARKSVILLE,50619,12
5001,Casey's General Store #3319 / Nevada,1800 SOUTH B AVE,NEVADA,50201,85
5003,The Music Station / Independence,709 FIRST ST W,INDEPENDENCE,50644,10
5004,Famous Liquors,2604 W LOCUST ST,DAVENPORT,52804,82
5005,Ida Grove Food Pride,200 SUSAN LAWRENCE DR,IDA GROVE,51445,47
5006,Laurens Food Pride,410 W MAIN ST,LAURENS,50554,76
5007,Kwik Stop 16th Street #325,1210 E 16TH ST,DUBUQUE,52001,31
5008,Brother's Market / Denver,1022 SKYLAR ST,DENVER,50622,9
5009,Emmetsburg Food Pride,1307 S BROADWAY ST,EMMETSBURG,50536,74
5010,New Pioneer Food Co-op,"1101, 2ND ST",CORALVILLE,52241,52
5011,Sac City Food Pride,106 S 16TH ST,SAC CITY,50583,81
5012,Kum & Go #443 / Williamsburg,2177 M AVE,WILLIAMSBURG,52361,48
5013,Bluejay Market,"2810, WILLIS AVE",PERRY,50220,8
5014,State Food Mart,3715 STATE ST,BETTENDORF,52722,82
5016,New Pioneer Food Co-op / Iowa City,22 S VAN BUREN ST,IOWA CITY,52240,52
5017,Sierra Foods,3326 CENTER POINT RD NE,CEDAR RAPIDS,52402,57
5018,Lansing IGA,417 MAIN ST,LANSING,52151,3
5019,Super Saver Liquor LLC,1610 ROCKINGHAM RD,DAVENPORT,52802,82
5020,Riverside Quick Shop,"802, S RIVERVIEW",BELLEVUE,52031,49
5021,Petromart Stanwood,"1118, HIGHWAY 30",STANWOOD,52337,16
5022,Kum & Go #608 / Okoboji,1001 SANBORN AVE,OKOBOJI,51355,30
5023,Kum & Go #97 / West Des Moines,196 S 50TH ST,WEST DES MOINES,50265,77
5024,Hawkeye Convenience Stores / 16th Av,250 16th AVE SW,CEDAR RAPIDS,52404,57
5025,Hawkeye Convenience Stores / Wiley,2330 WILEY BLVD SW,CEDAR RAPIDS,52404,57
5026,Hawkeye Convenience Stores / 1st Ave,1581 1ST AVE SE,CEDAR RAPIDS,52403,57
5027,Forrest Hometown Market,119 N MAIN ST,NORTH ENGLISH,52316,48
5028,Hard Rock Hotel & Casino Sioux City,111 3RD ST,SIOUX CITY,51101,97
5029,Midtown Liquor,"1100, E 5TH ST",STORM LAKE,50588,11
5030,The Liquor Stop LLC,"211, W 53RD ST",DAVENPORT,52806,82
5031,New Star,315 FLETCHER AVE,WATERLOO,50701,7
5032,New Star Raymond,101 COMMERCIAL ST,RAYMOND,50667,7
5033,Fastmart,1621 UNIVERSITY AVE,DES MOINES,50314,77
5034,Kwik Stop,4335 TEXAS ST,WATERLOO,50702,7
5035,Liquor Tobacco & Groceries,18 N MONROE AVE,MASON CITY,50401,17
5036,Casey's General Store #3205 / Counci,19900 VIRGINIA HILLS RD,COUNCIL BLUFFS,51503,78
5037,Point Liquor & Tobacco,4107 CENTER POINT RD NE,CEDAR RAPIDS,52402,57
5038,Uncorked Wine & Spirits,111 E HARRISON ST,JEFFERSON,50129,37
5039,Jim's Food,437 SULLIVAN AVE,WATERLOO,50701,7
5040,Casey's General Store #3384 / Solon,1200 S MARKET ST,SOLON,52333,52
5041,Wilton Express,1300 NICOLAUS ST,WILTON,52778,70
5042,Casey's General Store #3309 / Montez,106 N FRONT ST,MONTEZUMA,50171,79
5043,Super Stop III / Dubuque,1101 RHOMBERG AVE,DUBUQUE,52001,31
5044,West Side Liquor / Waterloo,919 W 5TH ST,WATERLOO,50702,7
5045,Casey's General Store #3202 / Cresce,"111, MORMON BRIDGE RD",CRESCENT,51526,78
5046,Central Mart / Hamilton Blvd,800 HAMILTON BLVD,SIOUX CITY,51103,97
5047,West K Mart,"707, PALEAN ST",KEOKUK,52632,56
5048,The Fresh Market,"180, COLLINS RD NE",CEDAR RAPIDS,52402,57
5049,Rolfe Area Market,"412, GARFIELD ST",ROLFE,50581,76
5050,Gas N Go  /  Waverly,1069 230TH ST,WAVERLY,50677,9
5051,Fareway Stores #147 / Carlisle,"1115, BLUESTEM DR",CARLISLE,50047,91
5052,Oasis,630 SW  9TH ST,DES MOINES,50309,77
5053,Casey's General Store #3220 / Greenf,"302, SE 6TH ST",GREENFIELD,50849,1
5054,Cork & Bottle / Iowa City,"610, EASTBURY DR",IOWA CITY,52245,52
5055,Cork 'N Bottle / Manchester,900 E MAIN ST,MANCHESTER,52087,28
5056,Latimer Community Grocery,"110, S  AKIR  ST",LATIMER,50452,35
5057,Council Bluffs Sinclair,"1305, N 25TH ST",COUNCIL BLUFFS,51501,78
5058,Kum & Go #535 / Des Moines,4960 E BROADWAY AVE,DES MOINES,50317,77
5059,Kum & Go # 542 / Urbandale,11989 Hickman Rd,Urbandale,50323,77
5060,Casey's General Store #1125 / Humest,"207, FRONT ST",HUMESTON,50123,93
5061,L&M Mighty Shop,"504, E BURLINGTON ST",IOWA CITY,52240,52
5062,Casey's General Store #3382 / Cedar,"560, 33RD AVE SW",CEDAR RAPIDS,52404,57
5063,Casey's General Store #2318 / Montro,"111, MAIN ST",MONTROSE,52639,56
5064,Logan Convenience Store,"735, LOGAN AVE",WATERLOO,50703,7
5065,Casey's General Store #2777 / Fairfa,"65, WILLIAMS BLVD",FAIRFAX,52228,57
5066,Circle S Gordon Drive,"2520, GORDON DR",SIOUX CITY,51106,97
5067,Bears Burgers & Buns,"14628, MILE HILL LANE",DUBUQUE,52003,31
5068,One Stop Liquor,"1101, N  LAKE AVE",STORM LAKE,50588,11
5069,Tobacco Shop / Arnolds Park,612 S HIGHWAY 71,ARNOLDS PARK,51331,30
5070,Casey's General Store #1705 / Lake M,101 N LAKE ST,LAKE MILLS,50450,95
5071,Jeff's Market / Wilton,"101, E 4TH ST",WILTON,52778,70
5072,Jeff's Market / Durant,408 6TH AVE,DURANT,52747,16
5073,Pep Stop,"901, E WASHINGTON ST",MOUNT PLEASANT,52641,44
5074,"Williams Boulevard Service, Inc.","2601, WILLIAMS BLVD SW",CEDAR RAPIDS,52404,57
5075,New Pioneer Food Co-op  / Center Poi,3338 CENTER POINT RD NE,CEDAR RAPIDS,52402,57
5076,Pronto Market  / New Sharon,"202, S MAIN ST",NEW SHARON,50207,62
5077,Cubby's Sioux City,4200 S YORK ST,SIOUX CITY,51106,97
5078,Wal-Mart 3150 / Council Bluffs,1800 N 16TH ST,COUNCIL BLUFFS,51501,78
5079,Casey's General Store #2096 / Counci,2301 S 24TH ST,COUNCIL BLUFFS,51501,78
5080,Casey's General Store #2489 / Deniso,1608 4TH AVE S,DENISON,51442,24
5081,C's Liquor Store,719 2ND AVE W,SPENCER,51301,21
5082,Casey's General Store #3035 / Atlant,701 POPLAR ST,ATLANTIC,50022,15
5083,Casey's General Store #2365 / Atlant,911 SW 7TH ST,ATLANTIC,50022,15
5084,Central Mart,"1203, TRI VIEW AVE",SIOUX CITY,51104,97
5085,Ismoke,"3221, 1ST AVE SE",CEDAR RAPIDS,52402,57
5086,New Star Hudson Mart,230 WATERLOO RD,HUDSON,50643,7
5087,"Central Mart I, LLC.","2501, FLOYD BLVD",SIOUX CITY,51106,97
5088,Quik-Pik  /  Logan,"107, W  7TH ST",LOGAN,51546,43
5089,Kum & Go #768 / Hospers,"107, IA HIGHWAY 60",HOSPERS,51238,84
5090,Mos Mini Mart,"614, E ERIE ST",MISSOURI VALLEY,51555,43
5091,Kum & Go #437 / Muscatine,709 GRANDVIEW AVE,MUSCATINE,52761,70
5092,Kum & Go #436 / Muscatine,501 CEDAR ST,MUSCATINE,52761,70
5093,Kum & Go #2035 / West Des Moines,7265 VISTA DR,WEST DES MOINES,50265,77
5094,Cody Mart,1220 N CODY RD,LE CLAIRE,52753,82
5095,Casey's General Store #2778 / Cedar,"201, 8TH AVE SE",CEDAR RAPIDS,52401,57
5096,Carterlake Mini Mart,"1001, LOCUST ST",CARTER LAKE,51510,78
5097,Walgreens #11710 / North Liberty,625 PACHA PARKWAY,NORTH LIBERTY,52317,52
5098,Fareway Stores #151 / Cedar Rapids,3717 1st AVE SE,CEDAR RAPIDS,52402,57
5099,Best Food Mart 3  LLC,1621 UNIVERSITY AVE,DES MOINES,50311,77
5100,Casey's General Store #2164 / Ankeny,3505 N  ANKENY BLVD,ANKENY,50023,77
5101,Sam's Food,648 N  MARQUETTE ST,DAVENPORT,52802,82
5102,New Star  /  Fletcher Ave,315 FLETCHER AVE,WATERLOO,50701,7
5103,Wilkie Liquors,"724, 1st  ST  SE",MOUNT VERNON,52314,57
5104,Curry's Express Mart,"4804, HWY  61 SOUTH",MUSCATINE,52761,70
5105,Rustic Lure Wine and Spirits,"72, N OKOBOJI GROVE RD",ARNOLD'S PARK,51331,30
5106,Johncy's Liquor Store,"585, HIGHWAY 965",NORTH LIBERTY,52317,52
5107,Barnes Food Land,622 10TH  ST,DEWITT,52742,23
5108,Kum & Go #4098 / Windsor Heights,"7229, UNIVERSITY AVE",WINDSOR HEIGHTS,50311,77
5109,Tobacco 4 Less / State St,1032 STATE ST,BETTENDORF,52722,82
5110,Casey's General Store #3404 / Carlis,1020 GATEWAY DR,CARLISLE,50047,91
5111,Ramsey's Market Liquor,"200, N WALNUT ST",LENOX,50851,87
5112,Creekside Market,2601 HWY 6 EAST,IOWA CITY,52240,52
5113,The Bottle Shop,"315, S Main St",Inwood,51240,60
5114,"Ray's Supermarket, Inc.",1975 FRANKLIN ST,WATERLOO,50703,7
5115,Casey's General Store #2612 / Missou,"106, E  ERIE ST",MISSOURI VALLEY,51555,43
5116,Pronto Market / Manly,"204, E SOUTH ST",MANLY,50456,98
5117,New Star Mart  /  Newton,"702, 1st AVE E",NEWTON,50702,94
5118,Food & Gas Mart  /  Marshalltown,"613, N 3RD AVE",MARSHALLTOWN,50158,64
5119,Kwik Stop #82  /  Peosta,"185, PEOSTA ST",PEOSTA,52068,31
5121,Corwith Farm Service,205 NW ELM ST,CORWITH,50430,41
5123,Liquor Beer & Tobacco Outlet  / Char,"1908, CLARK ST",CHARLES CITY,50616,34
5124,Price Chopper  /  Clive,15500 W  HICKMAN RD,CLIVE,50325,25
5125,Price Chopper  /  Johnston,5440 NW  86TH ST,JOHNSTON,50131,77
5126,Cash Saver  /  E Euclid Ave,1320 E  EUCLID AVE,DES MOINES,50316,77
5127,Price Chopper  /  Merle Hay,4343 MERLE HAY RD,DES MOINES,50310,77
5128,Price Chopper  /  Ingersoll,3425 INGERSOLL AVE,DES MOINES,50312,77
5129,Price Chopper  /  Beaver,1819 BEAVER AVE,DES MOINES,50310,77
5131,Cash Saver  /  Fleur,4121 FLEUR DR,DES MOINES,50321,77
5132,Oasis,"1401, BUCHANAN ST",DES MOINES,50316,77
5133,Phillips 66,"1516, SE  1ST  ST",DES MOINES,50315,77
5134,Don's Food Center,"102, ALBANY AVE NE",ORANGE CITY,51041,84
5135,Prime Mart #6  /  Charles City,"609, S MAIN ST",CHARLES CITY,50616,34
5136,Fareway Stores #155 / Huxley,911 HWY 69,HUXLEY,50124,85
5137,Urban Liquor,6401 DOUGLAS AVE,DES MOINES,50322,77
5138,Shop N Save  /  NW 2nd  DSM,"4685, NW  2ND ST",DES MOINES,50313,77
5139,Kellogg Country Store,"103, BLAIR ST",KELLOGG,50135,50
5140,Ali's Corner #2,"200, BROADWAY ST",WATERLOO,50703,7
5141,A to Z Liquor,"114, S  2ND  ST",CHEROKEE,51012,18
5142,Casey's General Store #3418 / Gowrie,"1131, MARKET ST",GOWRIE,50543,94
5144,Smokin' Joe's #13 Tobacco & Liquor O,"2315, MT VERNON RD SE",CEDAR RAPIDS,52303,57
5145,Sam's Club 6979 / Ankeny,4625 SE DELAWARE AVE,ANKENY,50021,77
5146,South Side Food Mart,1101 ARMY POST RD,DES MOINES,50315,77
5147,Fareway Stores #153  /  W Des Moines,329 GRAND AVE,WEST DES MOINES,50265,77
5148,Victor's Market,1001 3RD  ST,VICTOR,52347,79
5149,Main St Market  /  Holy Cross,"882, MAIN ST",HOLY CROSS,52053,31
5150,B S Mini Mart Inc,"1900, SUMMER ST",BURLINGTON,52601,29
5151,Casey's General Store #2815  /  Vict,"901, 3RD  ST",VICTOR,52347,79
5152,IDA Liquor,"500, HWY 175",IDA GROVE,51445,47
5153,Texas Street Market,"4335, TEXAS ST",WATERLOO,50702,7
5154,Oak Street Station LLC,2403 US HWY 18,INWOOD,51240,60
5155,Lake Park Foods,"201, MARKET ST",LAKE PARK,51347,30
5156,New Star  /  Ansborough Ave,"1459, ANSBOROUGH AVE",WATERLOO,50701,7
5157,Casey's General Store #1020  / Le Cl,"210, JONES ST",LE CLAIRE,52753,82
5159,Kimmes Manson Country Store #10,208 MAIN ST,MANSON,50563,13
5160,Kimmes Rockwell City Country Store #,"730, HIGH ST",ROCKWELL CITY,50579,13
5161,Kum & Go #37  /  Ottumwa,2508 N COURT ST,OTTUMWA,52501,90
5162,Ameristar Casino Council Bluffs Gift,"2200, RIVER ROAD, GIFT SHOP",COUNCIL BLUFFS,51501,78
5163,Urbandale Liquor,"6401, DOUGLAS AVE",URBANDALE,50322,77
5164,Gasland Express  /  Mt Pleasant,"309, W  WASHINGTON ST",MOUNT PLEASANT,52641,44
5165,Bucky's Express #22 / Council Bluffs,"3434, NEBRASKA AVE",COUNCIL BLUFFS,51501,78
5166,Kari Out Wine & Spirits LLC,"107, N  MILL ST",LAKE MILLS,50450,95
5167,East Side Liquor and Groceries,1116 E NEVADA ST,MARSHALLTOWN,50158,64
5168,New Star Liquor & Tobacco  / Ft Dodg,"1724, 5TH  AVE S",FORT DODGE,50501,94
5169,Point Liquor and Tobacco,"4107, CENTER POINT RD NE",CEDAR RAPIDS,52402,57
5170,AV Superstop,"5120, NE 14th Street",Des Moines,50313,77
5171,Casey's General Store #1414  / State,911 3RD  AVE SW,STATE CENTER,50247,64
5172,Gary's Liquor & Wine LTD,"110, E JEFFERSON ST",DELAWARE,52036,28
5173,Uptown Liquor & Tobacco,2000 WILLEY BLVD SW,CEDAR RAPIDS,52404,57
5174,Audubon Food Land,"104, MARKET ST",AUDUBON,50025,5
5175,Jim's Food   /  Sullivan Ave,"437, SULLIVAN AVE",WATERLOO,50701,7
5176,Kwik Stop Delhi,"502, 3rd  ST",DELHI,52223,28
5177,Smokin' Joe's #15 Tobacco & Liquor O,"455, EDGEWOOD RD NW",CEDAR RAPIDS,52405,57
5178,Casey's General Store #3204 / Minden,33280 335th ST,MINDEN,51553,78
5179,New York Dollar Stores,"320, N CALHOUN ST",WEST LIBERTY,52776,70
5180,Baxter Family Market,"103, N  MAIN ST",BAXTER,50028,50
5181,Oelwein Mart,"801, E  CHARLES  ST",OELWEIN,50662,33
5182,Casey's General Store #3434  /  Denv,"1101, JEFFERSON ST",DENVER,50622,9
5183,Kwik Shop #595  /  W Broadway,1749 W BROADWAY,COUNCIL BLUFFS,51501,78
5185,Casey's General Store #77  /  Cascad,717 1st  AVE,CASCADE,52033,31
5187,Kum & Go #521  /  Coralville,"205, 2nd ST",CORALVILLE,52241,52
5188,Kwik Stop Liquor & Groceries Ames,"125, 6th ST",AMES,50010,85
5189,Kum & Go #251 / Sioux City,1005 GORDON DR,SIOUX CITY,51101,97
5190,The Fresh Market  / W Des Moines,"5901, MILLS CIVIC PKWY",WEST DES MOINES,50266,77
5191,Guppy's On The Go / Walford,200 HWY 151 E,WALFORD,52351,57
5192,Casey's General Store #1534 / Guthri,"100, N  5th ST",GUTHRIE CENTER,50115,39
5196,Guppy's On the Go  /  Robins,"990, ROBINS SQUARE DR",ROBINS,52328,57
5198,The Depot Coralville,100 E  OAKDALE BLVD,CORALVILLE,52241,52
5199,Riverside Liquor,826 E RIVER DR,DAVENPORT,52803,82
5204,Super Mart / Oelwein,"701, S  FREDERICK  AVE",OELWEIN,50662,33
9001,Quik Stop  /  Burlington,1812 OSBORN ST,BURLINGTON,52601,29
9002,Cedar Ridge Vineyards,1441 MARAK RD NW,SWISHER,52338,52
9010,Mississippi River Distillery,303 N CODY RD,LECLAIRE,52753,82
9013,Broadbent Distillery,6175 50TH AVE,NORWALK,50211,91
9018,Iowa Distilling Company,4349 Cumming Ave.,Cumming,50061,91
